[
  {
    "ID": 1,
    "PlaceName": "France",
    "GeonamesURL": "http://www.geonames.org/3017382/republic-of-france.html",
    "Description": "",
    "AlternateSpellings": "Frankreich"
  },
  {
    "ID": 2,
    "PlaceName": "Paris",
    "GeonamesURL": "http://www.geonames.org/maps/google_48.853_2.349.html",
    "Description": "Capital and largest city of France.",
    "AlternateSpellings": ""
  },
  {
    "ID": 3,
    "PlaceName": "Val-de-Marne",
    "GeonamesURL": "http://www.geonames.org/2971090/departement-du-val-de-marne.html",
    "Description": "Commune southeast of Paris, France.",
    "AlternateSpellings": "Marne Valley"
  },
  {
    "ID": 4,
    "PlaceName": "La Ferto-sous-Jouarre",
    "GeonamesURL": "http://www.geonames.org/3009481/la-ferte-sous-jouarre.html",
    "Description": "Commune in north-central France.",
    "AlternateSpellings": "La Ferte\"; \"La Ferto\"; \"La- Ferto-sous-Jouarre"
  },
  {
    "ID": 5,
    "PlaceName": "Montreal",
    "GeonamesURL": "http://www.geonames.org/6077243/montreal.html",
    "Description": "Capital of Quobec, located in southeastern Canada on the St. Lawrence River.",
    "AlternateSpellings": "Montroal"
  },
  {
    "ID": 6,
    "PlaceName": "48 Old Elvet",
    "GeonamesURL": "http://www.geonames.org/10630243/university-of-durham.html",
    "Description": "Building at Durham University, northern England; John Fletcher's address in 1965.",
    "AlternateSpellings": ""
  },
  {
    "ID": 7,
    "PlaceName": "Berlin",
    "GeonamesURL": "http://www.geonames.org/maps/google_52.524_13.411.html",
    "Description": "Capital and largest city in Germany.",
    "AlternateSpellings": ""
  },
  {
    "ID": 8,
    "PlaceName": "Brie",
    "GeonamesURL": "http://www.geonames.org/8521427/brie.html",
    "Description": "Region in northern France, the western part of which corresponds now to Seine-et-Marne, ole-de-France.",
    "AlternateSpellings": ""
  },
  {
    "ID": 9,
    "PlaceName": "London",
    "GeonamesURL": "http://www.geonames.org/2643743/london.html",
    "Description": "Capital and largest city of England.",
    "AlternateSpellings": "Londres"
  },
  {
    "ID": 10,
    "PlaceName": "Town on the French Riviera, Provence-Alpes-Cote d'Azur, Departement: Alpes-Maritimes.",
    "GeonamesURL": "http://www.geonames.org/2634341/city-of-westminster.html",
    "Description": "Portland Place, London W1, City of Westminster.",
    "AlternateSpellings": ""
  },
  {
    "ID": 11,
    "PlaceName": "Rue Guonogaud",
    "GeonamesURL": "http://www.geonames.org/2997000/paris-06-luxembourg.html",
    "Description": "Street between rue Mazarine and quai de Conti, Paris 6.",
    "AlternateSpellings": "Guenegaud"
  },
  {
    "ID": 12,
    "PlaceName": "England",
    "GeonamesURL": "http://www.geonames.org/6269131/england.html",
    "Description": "",
    "AlternateSpellings": ""
  },
  {
    "ID": 13,
    "PlaceName": "7 Pembridge Crescent, London W. 11",
    "GeonamesURL": "http://www.geonames.org/6954767/notting-hill-gate-underground-station.html",
    "Description": "Address of John Beckett, January 1957.",
    "AlternateSpellings": ""
  },
  {
    "ID": 14,
    "PlaceName": "Ussy",
    "GeonamesURL": "http://www.geonames.org/2971289/ussy.html",
    "Description": "Commune in Seine-et-Marne, east of Paris; location of Beckett's cottage.",
    "AlternateSpellings": "Ussy-sur-Marne\"; \"Ussy sur Marne\"; \"Ussy-s/-M."
  },
  {
    "ID": 15,
    "PlaceName": "",
    "GeonamesURL": "",
    "Description": "",
    "AlternateSpellings": ""
  },
  {
    "ID": 16,
    "PlaceName": "Boston",
    "GeonamesURL": "http://www.geonames.org/4930956/boston.html",
    "Description": "Capital of Massachusetts (MA); Northeastern United States.",
    "AlternateSpellings": ""
  },
  {
    "ID": 17,
    "PlaceName": "5 Rue Sobastien-Bottin",
    "GeonamesURL": "http://www.geonames.org/2988760/paris-07-palais-bourbon.html",
    "Description": "Paris 7, location of the office of Gallimard.",
    "AlternateSpellings": "Sebastien-Bottin"
  },
  {
    "ID": 18,
    "PlaceName": "Bielefeld",
    "GeonamesURL": "http://www.geonames.org/2949186/bielefeld.html",
    "Description": "City in North Rhine-Westphalia, western Germany; location of Stodtische Bohnen Bielefeld.",
    "AlternateSpellings": ""
  },
  {
    "ID": 19,
    "PlaceName": "18A Belsize Lane, London N.W. 3",
    "GeonamesURL": "http://www.geonames.org/6690581/belsize-park.html",
    "Description": "Address of John Beckett, June 1957.",
    "AlternateSpellings": ""
  },
  {
    "ID": 21,
    "PlaceName": "Field Place",
    "GeonamesURL": "https://www.geonames.org/2963848/greystones.html",
    "Description": "Greystones, Co. Wicklow, Ireland. From 1933, the family home of Gerald and Margaret (Peggy) Beckett, and Peter, Ann and John Beckett.",
    "AlternateSpellings": ""
  },
  {
    "ID": 22,
    "PlaceName": "Surrey",
    "GeonamesURL": "http://www.geonames.org/2636512/surrey.html",
    "Description": "County in the southeast of England, bordering South London.",
    "AlternateSpellings": ""
  },
  {
    "ID": 23,
    "PlaceName": "Esplande des Invalides",
    "GeonamesURL": "http://www.geonames.org/11592080/esplanade-des-invalides.html",
    "Description": "A park along side of Hotel Les Invalides, in Paris 7.",
    "AlternateSpellings": ""
  },
  {
    "ID": 24,
    "PlaceName": "Holland",
    "GeonamesURL": "http://www.geonames.org/2753919/holland.html",
    "Description": "Region and historical province on the western coast of the Netherlands; informally used to refer to whole country of the Netherlands.",
    "AlternateSpellings": ""
  },
  {
    "ID": 25,
    "PlaceName": "New York City",
    "GeonamesURL": "http://www.geonames.org/5128581/new-york-city.html",
    "Description": "Megacity in the northeastern United States, at the mouth of the Hudson River.",
    "AlternateSpellings": "NYC\"; \"N.Y.C.\"; \"New York"
  },
  {
    "ID": 26,
    "PlaceName": "Rotterdam",
    "GeonamesURL": "http://www.geonames.org/2747891/rotterdam.html",
    "Description": "City in Holland, the Netherlands; on the North Sea.",
    "AlternateSpellings": ""
  },
  {
    "ID": 27,
    "PlaceName": "Japan",
    "GeonamesURL": "http://www.geonames.org/1861060/japan.html",
    "Description": "",
    "AlternateSpellings": ""
  },
  {
    "ID": 28,
    "PlaceName": "19 Avenue Klober, Paris 16",
    "GeonamesURL": "http://www.geonames.org/2988394/paris-16-passy.html",
    "Description": "Formerly the Hotel Majestic, headquarters of UNESCO from 1946-1958.",
    "AlternateSpellings": "Peninsula Paris\"; \"Avenue Kleber"
  },
  {
    "ID": 29,
    "PlaceName": "Ebury Street",
    "GeonamesURL": "http://www.geonames.org/6545247/belgravia.html",
    "Description": "Belgravia, London SW1.",
    "AlternateSpellings": ""
  },
  {
    "ID": 30,
    "PlaceName": "Scandinavia",
    "GeonamesURL": "http://www.geonames.org/2614165/scandinavia.html",
    "Description": "Region in Northern Europe comprised of Denmark, Norway, and Sweden.",
    "AlternateSpellings": ""
  },
  {
    "ID": 31,
    "PlaceName": "69 Rue de la Tombe-Issoire, Paris 14",
    "GeonamesURL": "http://www.geonames.org/2989781/paris-14-observatoire.html",
    "Description": "Address of Mania Poron in 1957.",
    "AlternateSpellings": ""
  },
  {
    "ID": 32,
    "PlaceName": "Pakistan",
    "GeonamesURL": "http://www.geonames.org/1168579/islamic-republic-of-pakistan.html",
    "Description": "",
    "AlternateSpellings": ""
  },
  {
    "ID": 33,
    "PlaceName": "Avenue Hoche",
    "GeonamesURL": "http://www.geonames.org/6947055/avenue-hoche.html",
    "Description": "59 Avenue Hoche, Paris 8, location of office of the BBC.",
    "AlternateSpellings": ""
  },
  {
    "ID": 34,
    "PlaceName": "Rue Royale",
    "GeonamesURL": "http://www.geonames.org/3020270/paris-08-elysee.html",
    "Description": "Street that extends between the Place de la Concord and L'oglise de Madeleine, Paris 1 and 8.",
    "AlternateSpellings": ""
  },
  {
    "ID": 35,
    "PlaceName": "Rue Castiglione",
    "GeonamesURL": "http://www.geonames.org/6269531/paris-01-louvre.html",
    "Description": "Street that extends from the Rue de Rivoli to the Place Vendome, Paris 1.",
    "AlternateSpellings": ""
  },
  {
    "ID": 36,
    "PlaceName": "Fort Worth",
    "GeonamesURL": "http://www.geonames.org/4691930/fort-worth.html",
    "Description": "City in North Central Texas.",
    "AlternateSpellings": ""
  },
  {
    "ID": 37,
    "PlaceName": "Lovran",
    "GeonamesURL": "http://www.geonames.org/11049441/lovran.html",
    "Description": "Village in Croatia (formerly Yugoslavia, 1945-1991).",
    "AlternateSpellings": ""
  },
  {
    "ID": 38,
    "PlaceName": "Chelsea",
    "GeonamesURL": "http://www.geonames.org/2653265/chelsea.html",
    "Description": "Affluent borough of Kensington and Chelsea, London SW1.",
    "AlternateSpellings": ""
  },
  {
    "ID": 39,
    "PlaceName": "East Ham",
    "GeonamesURL": "http://www.geonames.org/2650430/east-ham.html",
    "Description": "Borough of Newham, London E6.",
    "AlternateSpellings": ""
  },
  {
    "ID": 40,
    "PlaceName": "Sweetwater Cottage",
    "GeonamesURL": "http://www.geonames.org/10171168/wormley.html",
    "Description": "Wormley, near Godalming, Surrey; southwest London. Home of Donald and Sheila Page.",
    "AlternateSpellings": ""
  },
  {
    "ID": 41,
    "PlaceName": "Avenue du Maine",
    "GeonamesURL": "http://www.geonames.org/3015772/paris-13-gobelins.html",
    "Description": "Street that extends from Rue de Vaugirard to the Place Victor et Holone Basch, Paris 13.",
    "AlternateSpellings": ""
  },
  {
    "ID": 42,
    "PlaceName": "Rue de la Gaoto,",
    "GeonamesURL": "http://www.geonames.org/6618620/paris-14.html",
    "Description": "Street that extends between Avenue du Maine and Boulevard Edgar Quinet, Paris 14.",
    "AlternateSpellings": ""
  },
  {
    "ID": 43,
    "PlaceName": "Johannesburg",
    "GeonamesURL": "http://www.geonames.org/8347354/city-of-johannesburg-metropolitan-municipality.html",
    "Description": "Largest city in South Africa, northeast of Cape Town.",
    "AlternateSpellings": ""
  },
  {
    "ID": 44,
    "PlaceName": "Seine et Marne",
    "GeonamesURL": "http://www.geonames.org/2975249/seine-et-marne.html",
    "Description": "Departement, east of Paris, location of Ussy-sur-Marne.",
    "AlternateSpellings": ""
  },
  {
    "ID": 45,
    "PlaceName": "4 Hereford Square, London",
    "GeonamesURL": "http://www.geonames.org/2645801/kensington.html",
    "Description": "Kensington, London SW7; address of the Rosica Colin Agency in 1962.",
    "AlternateSpellings": ""
  },
  {
    "ID": 46,
    "PlaceName": "Ireland",
    "GeonamesURL": "http://www.geonames.org/2963597/ireland.html",
    "Description": "",
    "AlternateSpellings": "Eire\"; \"Irlande\"; \"Irland"
  },
  {
    "ID": 47,
    "PlaceName": "otretat",
    "GeonamesURL": "http://www.geonames.org/6443204/etretat.html",
    "Description": "Commune on the north coast of France, Normandy; country home of Jorome Lindon.",
    "AlternateSpellings": "Etretat"
  },
  {
    "ID": 48,
    "PlaceName": "United States",
    "GeonamesURL": "http://www.geonames.org/6252001/united-states.html",
    "Description": "",
    "AlternateSpellings": "USA\"; \"U.S.A.\"; \"America\"; \"The States\"; \"New World\"; \"US"
  },
  {
    "ID": 49,
    "PlaceName": "Canada",
    "GeonamesURL": "http://www.geonames.org/maps/google_60.109_-113.643.html",
    "Description": "",
    "AlternateSpellings": ""
  },
  {
    "ID": 50,
    "PlaceName": "Latin America",
    "GeonamesURL": "http://www.geonames.org/7730009/latin-america-and-the-caribbean.html",
    "Description": "The lands (13 dependencies and 20 countries) between northern border of Mexico to the southern end of South America, including the Caribbean; Spanish, French and Portuguese are the dominant languages, reflecting European colonialization.",
    "AlternateSpellings": ""
  },
  {
    "ID": 51,
    "PlaceName": "Rue de Fossos Saint-Bernard",
    "GeonamesURL": "http://www.geonames.org/6618611/paris-05.html",
    "Description": "Street that extends between Rue Jussieu and Quai de la Tournelle, Paris 5.",
    "AlternateSpellings": "Rue de Fosses Saint Bernard\"; Rue de Fosses Saint-Bernard"
  },
  {
    "ID": 52,
    "PlaceName": "Dublin",
    "GeonamesURL": "http://www.geonames.org/2964574/dublin.html",
    "Description": "Capital city of Ireland, located on the eastern coast.",
    "AlternateSpellings": ""
  },
  {
    "ID": 53,
    "PlaceName": "Killiney",
    "GeonamesURL": "http://www.geonames.org/6691044/kiliney.html",
    "Description": "Coastal community just south of Dublin, Ireland; home of Frank Beckett.",
    "AlternateSpellings": ""
  },
  {
    "ID": 54,
    "PlaceName": "North America",
    "GeonamesURL": "http://www.geonames.org/6255149/north-america.html",
    "Description": "",
    "AlternateSpellings": ""
  },
  {
    "ID": 55,
    "PlaceName": "Cahors",
    "GeonamesURL": "http://www.geonames.org/6449211/cahors.html",
    "Description": "Town in southwest France, capital of Lot departement.",
    "AlternateSpellings": ""
  },
  {
    "ID": 56,
    "PlaceName": "Westminster, London",
    "GeonamesURL": "http://www.geonames.org/2634341/city-of-westminster.html",
    "Description": "Area in Central London SW1, City of Westminster.",
    "AlternateSpellings": ""
  },
  {
    "ID": 57,
    "PlaceName": "Spain",
    "GeonamesURL": "http://www.geonames.org/2510769/kingdom-of-spain.html",
    "Description": "",
    "AlternateSpellings": "Espagne"
  },
  {
    "ID": 58,
    "PlaceName": "Lucerne",
    "GeonamesURL": "http://www.geonames.org/2659810/kanton-luzern.html",
    "Description": "City in German-speaking central Switzerland.",
    "AlternateSpellings": ""
  },
  {
    "ID": 59,
    "PlaceName": "Vevey",
    "GeonamesURL": "http://www.geonames.org/7287444/vevey.html",
    "Description": "Town in Switzerland, on Lake Geneva.",
    "AlternateSpellings": ""
  },
  {
    "ID": 60,
    "PlaceName": "Kettenhofweg 123",
    "GeonamesURL": "http://www.geonames.org/7118085/westend-sued.html",
    "Description": "Address of Theodo Adorno, Frankfurt, Germany in 1958.",
    "AlternateSpellings": ""
  },
  {
    "ID": 61,
    "PlaceName": "Frankfurt",
    "GeonamesURL": "http://www.geonames.org/2925533/frankfurt-am-main.html",
    "Description": "City in Hesse, Germany; in West Germany 1949-90.",
    "AlternateSpellings": "Francfort\", \"Frankfurt am Main\";"
  },
  {
    "ID": 62,
    "PlaceName": "Bath",
    "GeonamesURL": "http://www.geonames.org/2656173/bath.html",
    "Description": "A town in southwest England, west of London; famous for its Roman-built baths.",
    "AlternateSpellings": ""
  },
  {
    "ID": 63,
    "PlaceName": "Pelham, N.Y.",
    "GeonamesURL": "http://www.geonames.org/5130854/pelham.html",
    "Description": "Suburb northeast of New York City, United States.",
    "AlternateSpellings": ""
  },
  {
    "ID": 64,
    "PlaceName": "New York",
    "GeonamesURL": "http://www.geonames.org/5128638/new-york.html",
    "Description": "State in the northeastern United States.",
    "AlternateSpellings": "NY"
  },
  {
    "ID": 65,
    "PlaceName": "Austria",
    "GeonamesURL": "http://www.geonames.org/2782113/republic-of-austria.html",
    "Description": "",
    "AlternateSpellings": ""
  },
  {
    "ID": 66,
    "PlaceName": "Le Havre",
    "GeonamesURL": "http://www.geonames.org/3003796/le-havre.html",
    "Description": "Port city in Normandy; northern coast of France.",
    "AlternateSpellings": ""
  },
  {
    "ID": 67,
    "PlaceName": "Lydd",
    "GeonamesURL": "http://www.geonames.org/2643327/lydd.html",
    "Description": "Town in Kent, southeast England.",
    "AlternateSpellings": ""
  },
  {
    "ID": 68,
    "PlaceName": "Place de Rennes",
    "GeonamesURL": "http://www.geonames.org/6452859/place-de-la-republique.html",
    "Description": "Square in Paris located on the border between the 3rd, 10th and 11th arrondissements.",
    "AlternateSpellings": ""
  },
  {
    "ID": 69,
    "PlaceName": "Montmartre",
    "GeonamesURL": "http://www.geonames.org/6618624/paris-18.html",
    "Description": "Paris 18, large hill and its surrounding district on the Right Bank.",
    "AlternateSpellings": ""
  },
  {
    "ID": 70,
    "PlaceName": "Woodtown Manor",
    "GeonamesURL": "https://www.geonames.org/2961911/rathfarnham.html",
    "Description": "Rathfarnum, Dublin 14, the address of Garech Brown in 1970.",
    "AlternateSpellings": ""
  },
  {
    "ID": 71,
    "PlaceName": "Massachusetts",
    "GeonamesURL": "https://www.geonames.org/6254926/massachusetts.html",
    "Description": "The most populous state in the New England region of the United States; it borders on the Atlantic Ocean to the east.",
    "AlternateSpellings": "Mass\"; \"MA"
  },
  {
    "ID": 72,
    "PlaceName": "Quobec",
    "GeonamesURL": "https://www.geonames.org/6115047/quebec.html",
    "Description": "Province eastern Canada.",
    "AlternateSpellings": "Quebec"
  },
  {
    "ID": 73,
    "PlaceName": "30 Scenic Drive, Hastings-on-Hudson, New York",
    "GeonamesURL": "http://www.geonames.org/5120197/hastings-on-hudson.html",
    "Description": "Alan Schneider's address in 1965.",
    "AlternateSpellings": ""
  },
  {
    "ID": 74,
    "PlaceName": "Italy",
    "GeonamesURL": "http://www.geonames.org/3175395/repubblica-italiana.html",
    "Description": "",
    "AlternateSpellings": ""
  },
  {
    "ID": 75,
    "PlaceName": "Brazil",
    "GeonamesURL": "http://www.geonames.org/3469034/federative-republic-of-brazil.html",
    "Description": "",
    "AlternateSpellings": ""
  },
  {
    "ID": 76,
    "PlaceName": "Quiberon",
    "GeonamesURL": "http://www.geonames.org/2984741/quiberon.html",
    "Description": "Commune in Brittany, Northwest France.",
    "AlternateSpellings": ""
  },
  {
    "ID": 77,
    "PlaceName": "Merrion Square",
    "GeonamesURL": "http://www.geonames.org/6690999/merrion-square.html",
    "Description": "Georgian garden square on the southside of Dublin City Center, Ireland; home to many politicians, authors, and public figures.",
    "AlternateSpellings": ""
  },
  {
    "ID": 78,
    "PlaceName": "Invalides",
    "GeonamesURL": "http://www.geonames.org/6545262/invalides.html",
    "Description": "Paris 7; complex of buildings containing museums and monuments as well as a hospital and a retirement home for war veterans. Also the park of the same name between Rue de Grenelle and the Quai d'Orsay, the Metro station and site of shuttle bus from Charles de Gaulle airport, Paris.",
    "AlternateSpellings": "Hotel national des Invalides\"; \"Hotel des Invalides\";"
  },
  {
    "ID": 79,
    "PlaceName": "Florence",
    "GeonamesURL": "http://www.geonames.org/3176959/florence.html",
    "Description": "Capital of Tuscany, north Italy.",
    "AlternateSpellings": "Firenze"
  },
  {
    "ID": 80,
    "PlaceName": "Rue du Bac",
    "GeonamesURL": "http://www.geonames.org/2988760/paris-07-palais-bourbon.html",
    "Description": "Street that extends between Rue de Sovres and Boulevard Raspail, Paris 7.",
    "AlternateSpellings": ""
  },
  {
    "ID": 81,
    "PlaceName": "8 Plympton Street, Cambridge",
    "GeonamesURL": "",
    "Description": "Cambridge, MA. Address of Herbert Myron in 1970.",
    "AlternateSpellings": ""
  },
  {
    "ID": 82,
    "PlaceName": "Manchester",
    "GeonamesURL": "http://www.geonames.org/2643123/manchester.html",
    "Description": "City in northwest England; historically an industrial city.",
    "AlternateSpellings": ""
  },
  {
    "ID": 83,
    "PlaceName": "15 Rue Soguier",
    "GeonamesURL": "",
    "Description": "Street that extends between Rue Saint-Andro des Arts and the Quai des Grands Augustins, Paris 6. Address of Barbara Bray in Paris, 1970.",
    "AlternateSpellings": "Rue Seguier"
  },
  {
    "ID": 84,
    "PlaceName": "Rue doAssas",
    "GeonamesURL": "http://www.geonames.org/2997000/paris-06-luxembourg.html",
    "Description": "Street that extends between the Boulevard Raspail at the Place Alphonse Deville, and the Boulevard Saint-Michel, Paris 6.",
    "AlternateSpellings": ""
  },
  {
    "ID": 85,
    "PlaceName": "Polynesia",
    "GeonamesURL": "http://www.geonames.org/7729901/polynesia.html",
    "Description": "Collection of over 1,000 islands scattered in the central and southern Pacific Ocean.",
    "AlternateSpellings": ""
  },
  {
    "ID": 86,
    "PlaceName": "21 Hyde Park Square",
    "GeonamesURL": "",
    "Description": "London, W2. Address of Mary Hutchinson.",
    "AlternateSpellings": ""
  },
  {
    "ID": 87,
    "PlaceName": "Dalkey",
    "GeonamesURL": "http://www.geonames.org/2964892/dalkey.html",
    "Description": "Suburb of Dublin, Ireland; on the coast southeast of the city.",
    "AlternateSpellings": ""
  },
  {
    "ID": 88,
    "PlaceName": "Dosseldorf",
    "GeonamesURL": "http://www.geonames.org/2934246/duesseldorf.html",
    "Description": "Capital and second largest city of North Rhine-Westphalia, northwestern Germany.",
    "AlternateSpellings": "Dusseldorf\"; \"Duesseldorf\";"
  },
  {
    "ID": 89,
    "PlaceName": "Munich",
    "GeonamesURL": "http://www.geonames.org/2867714/munich.html",
    "Description": "Capital and most populous city in Bavaria, southeastern Germany.",
    "AlternateSpellings": ""
  },
  {
    "ID": 90,
    "PlaceName": "205 bis Bd. Raspail",
    "GeonamesURL": "",
    "Description": "Paris 14. Address of the Haydens in Paris.",
    "AlternateSpellings": ""
  },
  {
    "ID": 91,
    "PlaceName": "Place de la Bastille",
    "GeonamesURL": "http://www.geonames.org/8030041/place-de-la-bastille.html",
    "Description": "Square located in Paris 4, 11, 12; location of the events of the French Revolution and the Bastille prison.",
    "AlternateSpellings": ""
  },
  {
    "ID": 92,
    "PlaceName": "Gare de Nord",
    "GeonamesURL": "http://www.geonames.org/2990128/gare-de-nord.html",
    "Description": "Paris train station for connections north and east.",
    "AlternateSpellings": ""
  },
  {
    "ID": 93,
    "PlaceName": "Montparnasse",
    "GeonamesURL": "http://www.geonames.org/6545263/montparnasse.html",
    "Description": "Area on the left bank of the river Seine, Paris 15; famous for its vibrant art and intellectual scene during SB's lifetime.",
    "AlternateSpellings": "Mt Parnasse\"; \"Mountparnasse\"; \"MtParnasse\"; \"Montparno"
  },
  {
    "ID": 94,
    "PlaceName": "Girardos Vale",
    "GeonamesURL": "",
    "Description": "Paris check 13-8-57 Maguinness",
    "AlternateSpellings": ""
  },
  {
    "ID": 95,
    "PlaceName": "Abthorpe",
    "GeonamesURL": "https://www.geonames.org/2657773/abthorpe.html",
    "Description": "Village in Northampshire, England, 4 miles west of Towcester.",
    "AlternateSpellings": ""
  },
  {
    "ID": 96,
    "PlaceName": "Amsterdam",
    "GeonamesURL": "http://www.geonames.org/2759794/amsterdam.html",
    "Description": "Capital and most populous city of the Netherlands.",
    "AlternateSpellings": ""
  },
  {
    "ID": 97,
    "PlaceName": "Belgrade",
    "GeonamesURL": "http://www.geonames.org/792680/belgrade.html",
    "Description": "Capital of Yugoslavia 1918-2006. From 2006, capital and largest city of Serbia.",
    "AlternateSpellings": "Beograd"
  },
  {
    "ID": 98,
    "PlaceName": "Bern",
    "GeonamesURL": "http://www.geonames.org/2661552/bern.html",
    "Description": "Capital of Switzerland.",
    "AlternateSpellings": "Berne"
  },
  {
    "ID": 99,
    "PlaceName": "Zagreb",
    "GeonamesURL": "http://www.geonames.org/3186886/zagreb.html",
    "Description": "Capital and largest city in Croatia.",
    "AlternateSpellings": ""
  },
  {
    "ID": 100,
    "PlaceName": "Geneva",
    "GeonamesURL": "http://www.geonames.org/2660646/geneve.html",
    "Description": "City in western Switzerland; largest French-speaking city in nation.",
    "AlternateSpellings": ""
  },
  {
    "ID": 101,
    "PlaceName": "France",
    "GeonamesURL": "http://www.geonames.org/3017382/republic-of-france.html",
    "Description": "",
    "AlternateSpellings": ""
  },
  {
    "ID": 102,
    "PlaceName": "Madrid",
    "GeonamesURL": "http://www.geonames.org/3117732/comunidad-de-madrid.html",
    "Description": "Capital and largest city in Spain.",
    "AlternateSpellings": ""
  },
  {
    "ID": 103,
    "PlaceName": "Waikiki",
    "GeonamesURL": "http://www.geonames.org/5854380/waikiki.html",
    "Description": "Beachfront neighborhood of Honolulu, Hawaii.",
    "AlternateSpellings": ""
  },
  {
    "ID": 104,
    "PlaceName": "Purley",
    "GeonamesURL": "http://www.geonames.org/2639842/purley.html",
    "Description": "Town in Surrey, south of London. Barbara Bray lived there in 1958-1959.",
    "AlternateSpellings": ""
  },
  {
    "ID": 105,
    "PlaceName": "Northampshire",
    "GeonamesURL": "https://www.geonames.org/2641429/northamptonshire.html",
    "Description": "County in East England.",
    "AlternateSpellings": "Northhamptonshire"
  },
  {
    "ID": 106,
    "PlaceName": "Barbados",
    "GeonamesURL": "https://www.geonames.org/3374084/barbados.html",
    "Description": "Island nation in the Caribbean, part of the British Commonwealth.",
    "AlternateSpellings": ""
  },
  {
    "ID": 107,
    "PlaceName": "Cologne",
    "GeonamesURL": "http://www.geonames.org/2886242/koeln.html",
    "Description": "City on the Rhine in western Germany.",
    "AlternateSpellings": "Koln"
  },
  {
    "ID": 108,
    "PlaceName": "Scotland",
    "GeonamesURL": "http://www.geonames.org/2638360/scotland.html",
    "Description": "",
    "AlternateSpellings": ""
  },
  {
    "ID": 109,
    "PlaceName": "San Francisco",
    "GeonamesURL": "http://www.geonames.org/5391959/san-francisco.html",
    "Description": "City in northern California, on the Pacific coast.",
    "AlternateSpellings": ""
  },
  {
    "ID": 110,
    "PlaceName": "Broadway",
    "GeonamesURL": "http://www.geonames.org/11820520/broadway.html",
    "Description": "Theatre district in midtown Manhattan, New York City.",
    "AlternateSpellings": ""
  },
  {
    "ID": 111,
    "PlaceName": "King's Road",
    "GeonamesURL": "http://www.geonames.org/2653265/chelsea.html",
    "Description": "Major street in west London SW3, Borough of Kensington and Chelsea; associated with 1960s style, and fashion.",
    "AlternateSpellings": "Kings Road"
  },
  {
    "ID": 112,
    "PlaceName": "Toronto",
    "GeonamesURL": "https://www.geonames.org/6167865/toronto.html",
    "Description": "Capital of Ontario, in southeastern Canada.",
    "AlternateSpellings": ""
  },
  {
    "ID": 113,
    "PlaceName": "Tisbury",
    "GeonamesURL": "https://www.geonames.org/2635774/tisbury.html",
    "Description": "A large village in Co. Wiltshire, England.",
    "AlternateSpellings": ""
  },
  {
    "ID": 114,
    "PlaceName": "Wiltshire",
    "GeonamesURL": "https://www.geonames.org/2633868/wiltshire.html",
    "Description": "A county in southern England.",
    "AlternateSpellings": "Co. Wiltshire"
  },
  {
    "ID": 115,
    "PlaceName": "Kilmacanogue",
    "GeonamesURL": "https://www.geonames.org/3315162/kilmacanoge.html",
    "Description": "Small village in Co. Wicklow, Ireland.",
    "AlternateSpellings": ""
  },
  {
    "ID": 116,
    "PlaceName": "County Wicklow",
    "GeonamesURL": "https://www.geonames.org/2960935/wicklow.html",
    "Description": "County to the south of Dublin, along the coast.",
    "AlternateSpellings": "Co. Wicklow"
  },
  {
    "ID": 117,
    "PlaceName": "Bologna",
    "GeonamesURL": "https://www.geonames.org/3181928/bologna.html",
    "Description": "City in northern Italy, capital of the Emilia-Romagna region.",
    "AlternateSpellings": "Bologne"
  },
  {
    "ID": 118,
    "PlaceName": "Port Saod",
    "GeonamesURL": "http://www.geonames.org/358619/port-said.html",
    "Description": "City in northeast Egypt, on the Mediterranean coast.",
    "AlternateSpellings": "Port Said"
  },
  {
    "ID": 119,
    "PlaceName": "6 Rue de Favorites",
    "GeonamesURL": "http://www.geonames.org/2970479/paris-15-vaugirard.html",
    "Description": "Paris 15; address of SB's apartment from 1938-1960.",
    "AlternateSpellings": ""
  },
  {
    "ID": 120,
    "PlaceName": "Santa Barbara",
    "GeonamesURL": "https://www.geonames.org/5392952/santa-barbara.html",
    "Description": "City in southern California on the Pacific coast.",
    "AlternateSpellings": ""
  },
  {
    "ID": 121,
    "PlaceName": "",
    "GeonamesURL": "",
    "Description": "",
    "AlternateSpellings": ""
  },
  {
    "ID": 122,
    "PlaceName": "Barcelona",
    "GeonamesURL": "http://www.geonames.org/3128760/barcelona.html",
    "Description": "City in northeast Spain; capital of Catalonia; located on the Mediterranean coast.",
    "AlternateSpellings": ""
  },
  {
    "ID": 123,
    "PlaceName": "Zurich",
    "GeonamesURL": "http://www.geonames.org/2657896/zuerich.html",
    "Description": "Largest city in Switzerland, located in the north; a global center for banking and finance.",
    "AlternateSpellings": "Zorich"
  },
  {
    "ID": 124,
    "PlaceName": "Saint-Germain-des-Pros",
    "GeonamesURL": "http://www.geonames.org/6693610/saint-germain-des-pres.html",
    "Description": "Left bank neighborhood in Paris 6, France; fashionable intellectual hub during SB's lifetime.",
    "AlternateSpellings": "St. Germain\"; \"Saint-Germain-des-Pres\";\"St Germain\"; \"Saint Germain\"."
  },
  {
    "ID": 125,
    "PlaceName": "United Kingdom",
    "GeonamesURL": "http://www.geonames.org/2635167/united-kingdom-of-great-britain-and-northern-ireland.html",
    "Description": "Comprised of England, Scotland, Wales and Northern Ireland.",
    "AlternateSpellings": "UK\"; \"U.K.\"; \"Great Britain\"; \"Britain"
  },
  {
    "ID": 126,
    "PlaceName": "Stockholm",
    "GeonamesURL": "http://www.geonames.org/2673730/stockholm.html",
    "Description": "Capital and most populated city in Sweden; on Baltic coast.",
    "AlternateSpellings": ""
  },
  {
    "ID": 127,
    "PlaceName": "Folkestone",
    "GeonamesURL": "http://www.geonames.org/2649258/folkestone.html",
    "Description": "A port town on the English Channel in Kent, southeast England; site of SB and Suzanne Deschevaux-Dumesnil's 1961 marriage.",
    "AlternateSpellings": ""
  },
  {
    "ID": 128,
    "PlaceName": "Amiens",
    "GeonamesURL": "http://www.geonames.org/3037854/amiens.html",
    "Description": "City and commune in northern France, capital of Somme departement.",
    "AlternateSpellings": ""
  },
  {
    "ID": 129,
    "PlaceName": "Sorrento",
    "GeonamesURL": "http://www.geonames.org/3166350/sorrento.html",
    "Description": "Coastal town in Campania, southwestern Italy, facing the Bay of Naples.",
    "AlternateSpellings": ""
  },
  {
    "ID": 130,
    "PlaceName": "Delft",
    "GeonamesURL": "http://www.geonames.org/2757345/delft.html",
    "Description": "City in the Netherlands; located in South Holland.",
    "AlternateSpellings": ""
  },
  {
    "ID": 131,
    "PlaceName": "Haarlem",
    "GeonamesURL": "http://www.geonames.org/2755003/haarlem.html",
    "Description": "City in the Netherlands; located in North Holland.",
    "AlternateSpellings": ""
  },
  {
    "ID": 132,
    "PlaceName": "Dover",
    "GeonamesURL": "http://www.geonames.org/4142290/dover.html",
    "Description": "A town and major ferry port on English Channel facing France, in Co. Kent, southeastern England.",
    "AlternateSpellings": ""
  },
  {
    "ID": 133,
    "PlaceName": "Canterbury",
    "GeonamesURL": "http://www.geonames.org/2653877/canterbury.html",
    "Description": "City in Co. Kent, southeastern England.",
    "AlternateSpellings": ""
  },
  {
    "ID": 134,
    "PlaceName": "",
    "GeonamesURL": "",
    "Description": "",
    "AlternateSpellings": ""
  },
  {
    "ID": 135,
    "PlaceName": "Westphalia",
    "GeonamesURL": "http://www.geonames.org/2861876/nordrhein-westfalen.html",
    "Description": "Western state in Germany on the North Rhine.",
    "AlternateSpellings": ""
  },
  {
    "ID": 136,
    "PlaceName": "Aix-les-Bains",
    "GeonamesURL": "http://www.geonames.org/6452510/aix-les-bains.html",
    "Description": "Commune in southeast France, Savoie departement.",
    "AlternateSpellings": "Aix les Bains"
  },
  {
    "ID": 137,
    "PlaceName": "Molien",
    "GeonamesURL": "http://www.geonames.org/6443882/ussy-sur-marne.html",
    "Description": "Town in the Ussy-sur-Marne administrative district, France.",
    "AlternateSpellings": ""
  },
  {
    "ID": 138,
    "PlaceName": "Rue Cardinal-Lemoine",
    "GeonamesURL": "http://www.geonames.org/6618611/paris-05.html",
    "Description": "Paris 5; extends north to Quai de la Tournelle and south to Place de la Contrescarpe. Street address of Pierre Leyris in 1957, where Mary Hutchinson stayed during her visit to Paris that September.",
    "AlternateSpellings": ""
  },
  {
    "ID": 139,
    "PlaceName": "25 Hillway, Highgate, London N6",
    "GeonamesURL": "http://www.geonames.org/2646958/highgate.html",
    "Description": "Address of William Stuart Maguinnes, from 1957.",
    "AlternateSpellings": "Hillway"
  },
  {
    "ID": 140,
    "PlaceName": "Brighton",
    "GeonamesURL": "http://www.geonames.org/2654710/brighton.html",
    "Description": "Seaside resort town; south coast of England; popular day-trip destination for Londoners.",
    "AlternateSpellings": ""
  },
  {
    "ID": 141,
    "PlaceName": "Saco",
    "GeonamesURL": "https://www.geonames.org/4977222/saco.html",
    "Description": "Town in York County, Maine, US.",
    "AlternateSpellings": ""
  },
  {
    "ID": 142,
    "PlaceName": "Renaissance Theatre, 20 Boulevard Saint-Martin, 75010 Paris, France",
    "GeonamesURL": "http://www.geonames.org/3020216/paris-10-entrepot.html",
    "Description": "Theatre, Paris 10.",
    "AlternateSpellings": "Renaissance theater\" \"the Renaissance\" \"Thootre de la Renaissance\";"
  },
  {
    "ID": 143,
    "PlaceName": "Rye",
    "GeonamesURL": "http://www.geonames.org/2638909/rye.html",
    "Description": "Small town in East Sussex, southeastern England.",
    "AlternateSpellings": ""
  },
  {
    "ID": 144,
    "PlaceName": "Winchelsea",
    "GeonamesURL": "http://www.geonames.org/2633859/winchelsea.html",
    "Description": "Small town in East Sussex, southeastern England.",
    "AlternateSpellings": ""
  },
  {
    "ID": 145,
    "PlaceName": "Le Jardin du Luxembourg",
    "GeonamesURL": "http://www.geonames.org/6452692/jardin-du-luxembourg.html",
    "Description": "Park and gardens, Paris 6.",
    "AlternateSpellings": "Luxembourg Gardens"
  },
  {
    "ID": 146,
    "PlaceName": "Saint-Michel",
    "GeonamesURL": "http://www.geonames.org/11592084/place-saint-michel.html",
    "Description": "Left bank neighborhood, centered by the Boulevard St. Michel, Paris 5.",
    "AlternateSpellings": "Boulevard St. Michel\"; \"Bld. St. Michel\"; Boul. St. Michael\"'; \"Bd. St. Michel\"; \"Boul St Mich\"; \"St Michel\"' \"Place Saint-Michel\"."
  },
  {
    "ID": 147,
    "PlaceName": "",
    "GeonamesURL": "",
    "Description": "",
    "AlternateSpellings": ""
  },
  {
    "ID": 148,
    "PlaceName": "Port-Royal",
    "GeonamesURL": "http://www.geonames.org/2988623/paris-05-pantheon.html",
    "Description": "District at the intersection of Boulevard St. Michel, Boulevard Montparnasse, and Boulevard de Port-Royal; Station of RER (Roseau Express Rogional, commuter rail service), Paris 5 and 6.",
    "AlternateSpellings": ""
  },
  {
    "ID": 149,
    "PlaceName": "Sweden",
    "GeonamesURL": "http://www.geonames.org/2661886/kingdom-of-sweden.html",
    "Description": "",
    "AlternateSpellings": ""
  },
  {
    "ID": 150,
    "PlaceName": "Hollywood",
    "GeonamesURL": "http://www.geonames.org/5357527/hollywood.html",
    "Description": "District in Los Angeles, California; a center of the American film industry.",
    "AlternateSpellings": ""
  },
  {
    "ID": 151,
    "PlaceName": "Denmark",
    "GeonamesURL": "http://www.geonames.org/2623032/kingdom-of-denmark.html",
    "Description": "",
    "AlternateSpellings": ""
  },
  {
    "ID": 152,
    "PlaceName": "Aix-en-Provence",
    "GeonamesURL": "http://www.geonames.org/3038354/aix-en-provence.html",
    "Description": "Commune in southern France, Bouches-du-Rhone departement.",
    "AlternateSpellings": "Aix en Provence"
  },
  {
    "ID": 153,
    "PlaceName": "Maine",
    "GeonamesURL": "https://www.geonames.org/4971068/maine.html",
    "Description": "State on the northeastern coast, United States.",
    "AlternateSpellings": ""
  },
  {
    "ID": 154,
    "PlaceName": "The West End",
    "GeonamesURL": "http://www.geonames.org/6615338/west-end-of-london.html",
    "Description": "Central and west London, Boroughs of Westminster and Camden; London theatre district and main commercial/entertainment center of the city.",
    "AlternateSpellings": ""
  },
  {
    "ID": 155,
    "PlaceName": "Mallorca",
    "GeonamesURL": "http://www.geonames.org/2514239/mallorca.html",
    "Description": "Island in Mediterranean Sea, belonging to Spain; beach and resort destination.",
    "AlternateSpellings": "Majorca"
  },
  {
    "ID": 156,
    "PlaceName": "Washington D.C.",
    "GeonamesURL": "http://www.geonames.org/4138106/district-of-columbia.html",
    "Description": "Capital of the United States, located in the mid-Atlantic region adjacent to Virginia.",
    "AlternateSpellings": ""
  },
  {
    "ID": 157,
    "PlaceName": "Place de loOdoon",
    "GeonamesURL": "http://www.geonames.org/6696092/theatre-de-l-odeon.html",
    "Description": "Paris 6; location of the Thootre de loOdoon.",
    "AlternateSpellings": "l'Odeon"
  },
  {
    "ID": 158,
    "PlaceName": "Cherbourg",
    "GeonamesURL": "http://www.geonames.org/3025466/cherbourg-octeville.html",
    "Description": "Port city, Manche, Normandy; northern coast of France.",
    "AlternateSpellings": ""
  },
  {
    "ID": 159,
    "PlaceName": "Charlottenburg",
    "GeonamesURL": "http://www.geonames.org/2940187/charlottenburg.html",
    "Description": "District of western Berlin, Germany.",
    "AlternateSpellings": ""
  },
  {
    "ID": 160,
    "PlaceName": "Edinburgh",
    "GeonamesURL": "http://www.geonames.org/2650225/edinburgh.html",
    "Description": "Capital of Scotland.",
    "AlternateSpellings": ""
  },
  {
    "ID": 161,
    "PlaceName": "Israel",
    "GeonamesURL": "http://www.geonames.org/294640/state-of-israel.html",
    "Description": "",
    "AlternateSpellings": ""
  },
  {
    "ID": 162,
    "PlaceName": "Lansdowne Road",
    "GeonamesURL": "http://www.geonames.org/6949190/bahnhof-lansdowne-road.html",
    "Description": "Street in central Dublin that extends to the River Dodder; it lends its name to a rail station and to Lansdowne Road Stadium (now Aviva Stadium).",
    "AlternateSpellings": ""
  },
  {
    "ID": 163,
    "PlaceName": "Choteau-Thierry",
    "GeonamesURL": "http://www.geonames.org/3026194/chateau-thierry.html",
    "Description": "French commune northeast of Paris, departement de l'Aisne.",
    "AlternateSpellings": "Chateau-Thierry"
  },
  {
    "ID": 164,
    "PlaceName": "Le Limon",
    "GeonamesURL": "http://www.geonames.org/2975249/seine-et-marne.html",
    "Description": "Village near La Ferto-sous-Jouarre, Seine et Marne; east of Paris.",
    "AlternateSpellings": ""
  },
  {
    "ID": 165,
    "PlaceName": "Ulm",
    "GeonamesURL": "http://www.geonames.org/2820255/ulm.html",
    "Description": "City in Baden-Wortenberg, southern Germany.",
    "AlternateSpellings": "Baden-Wurtenberg\"; \"Baden-Wuertenberg"
  },
  {
    "ID": 166,
    "PlaceName": "Siberia",
    "GeonamesURL": "http://www.geonames.org/2016590/siberia.html",
    "Description": "Geographic region of North Asia; in contemporary Russia.",
    "AlternateSpellings": ""
  },
  {
    "ID": 167,
    "PlaceName": "Europe",
    "GeonamesURL": "http://www.geonames.org/6255148/europe.html",
    "Description": "",
    "AlternateSpellings": ""
  },
  {
    "ID": 170,
    "PlaceName": "ole Saint-Louis",
    "GeonamesURL": "http://www.geonames.org/9843562/paris-09-ancien-quartier-ile-saint-louis.html",
    "Description": "One of two islands in the river Seine, Paris. East of ole de la Cito.",
    "AlternateSpellings": "Ile Saint-Louis"
  },
  {
    "ID": 171,
    "PlaceName": "Middletown, Connecticut",
    "GeonamesURL": "http://www.geonames.org/4838633/middletown.html",
    "Description": "City in central Connecticut, United States.",
    "AlternateSpellings": "Middleton"
  },
  {
    "ID": 172,
    "PlaceName": "Greystones",
    "GeonamesURL": "http://www.geonames.org/2963848/greystones.html",
    "Description": "Coastal town in Co. Wicklow, Ireland; south of Dublin.",
    "AlternateSpellings": ""
  },
  {
    "ID": 173,
    "PlaceName": "Rhineland",
    "GeonamesURL": "http://www.geonames.org/2847618/rheinland-pfalz.html",
    "Description": "Region in western Germany; part of the Federal Republic of Germany 1949-1990.",
    "AlternateSpellings": ""
  },
  {
    "ID": 174,
    "PlaceName": "Seychelles",
    "GeonamesURL": "http://www.geonames.org/241170/republic-of-seychelles.html",
    "Description": "An archipelago of 115 Islands located in Indian Ocean, off the coast of East Africa.",
    "AlternateSpellings": ""
  },
  {
    "ID": 175,
    "PlaceName": "South Africa",
    "GeonamesURL": "http://www.geonames.org/953987/republic-of-south-africa.html",
    "Description": "",
    "AlternateSpellings": "S.A."
  },
  {
    "ID": 176,
    "PlaceName": "38 Boulevard Saint-Jacques",
    "GeonamesURL": "http://www.geonames.org/6545263/montparnasse.html",
    "Description": "Paris 14, address of Beckett's apartment from 1960-1989.",
    "AlternateSpellings": ""
  },
  {
    "ID": 177,
    "PlaceName": "Val doIsore",
    "GeonamesURL": "http://www.geonames.org/2971074/val-d-isere.html",
    "Description": "Commune in southeastern France; mountain resort town in the Alps.",
    "AlternateSpellings": "Val d'Isere"
  },
  {
    "ID": 178,
    "PlaceName": "Black Forest",
    "GeonamesURL": "http://www.geonames.org/2834688/black-forest.html",
    "Description": "Region in southwest Germany near the border with France; known for mountains and forests.",
    "AlternateSpellings": "Schwarzwald"
  },
  {
    "ID": 179,
    "PlaceName": "Boulevard St.-Jacques",
    "GeonamesURL": "http://www.geonames.org/6545263/montparnasse.html",
    "Description": "Street that extends from the Boulevard St.-Michel to Rue de la Santo, Paris 14; SB resided at 38 Boulevard St.-Jacques from 1960-1989.",
    "AlternateSpellings": "St. Jacques\"; \"Saint Jacques"
  },
  {
    "ID": 180,
    "PlaceName": "Baden Baden",
    "GeonamesURL": "http://www.geonames.org/2953504/baden-baden.html",
    "Description": "Spa town, located in the state of Baden-Worttemberg in southwestern Germany.",
    "AlternateSpellings": "Baden-Baden"
  },
  {
    "ID": 181,
    "PlaceName": "",
    "GeonamesURL": "",
    "Description": "",
    "AlternateSpellings": ""
  },
  {
    "ID": 182,
    "PlaceName": "Castagniers",
    "GeonamesURL": "http://www.geonames.org/6446688/castagniers.html",
    "Description": "Commune in Alpes-Maritimes, southeastern France.",
    "AlternateSpellings": ""
  },
  {
    "ID": 183,
    "PlaceName": "Sovres_Babylone",
    "GeonamesURL": "http://www.geonames.org/2988760/paris-07-palais-bourbon.html",
    "Description": "Metro station on the Rue de Sovres at the Boulevard Raspail, Paris 6 and 7.",
    "AlternateSpellings": "Sevres-Babylone"
  },
  {
    "ID": 184,
    "PlaceName": "23 Rue Roplinger, Lyon, Rhone, France",
    "GeonamesURL": "http://www.geonames.org/6543970/lyon-04.html",
    "Description": "Address of Monique Journoud in 1957.",
    "AlternateSpellings": "Rue Ruplinger"
  },
  {
    "ID": 185,
    "PlaceName": "Mexico",
    "GeonamesURL": "http://www.geonames.org/3996063/mexico.html",
    "Description": "",
    "AlternateSpellings": ""
  },
  {
    "ID": 186,
    "PlaceName": "Notre Dame du Champs",
    "GeonamesURL": "",
    "Description": "Street that extends from Rue de Vaugirard to Boulevard St. Michael, Paris 5 and 6. Metro station on Boulevard Raspail.",
    "AlternateSpellings": "N.D. du Champs"
  },
  {
    "ID": 187,
    "PlaceName": "Rue des Ecoles",
    "GeonamesURL": "",
    "Description": "Street that extends between Boulevard St. Michel and Boulevard du Cardinal Lemoine, Paris 5.",
    "AlternateSpellings": ""
  },
  {
    "ID": 188,
    "PlaceName": "New Hampshire",
    "GeonamesURL": "http://www.geonames.org/5090174/new-hampshire.html",
    "Description": "State in the northeastern United States.",
    "AlternateSpellings": ""
  },
  {
    "ID": 189,
    "PlaceName": "Northampton",
    "GeonamesURL": "http://www.geonames.org/2641430/northampton.html",
    "Description": "Town in the eastern midlands of England.",
    "AlternateSpellings": ""
  },
  {
    "ID": 190,
    "PlaceName": "Copenhagen",
    "GeonamesURL": "http://www.geonames.org/2618425/copenhagen.html",
    "Description": "Capital of Denmark, located in coastal region between the North and Baltic seas",
    "AlternateSpellings": "Copenhague"
  },
  {
    "ID": 191,
    "PlaceName": "15 Avenue Montaigne, Paris 8",
    "GeonamesURL": "http://www.geonames.org/6618614/paris-08.html",
    "Description": "Address of Studio des Champs-olysoes.",
    "AlternateSpellings": "Avenue Montaigne, Paris 8"
  },
  {
    "ID": 192,
    "PlaceName": "Rue Campagne Premiore",
    "GeonamesURL": "http://www.geonames.org/6618620/paris-14.html",
    "Description": "Street that extends between the Boulevard Raspail and the Boulevard de Montparnasse, Paris 14.",
    "AlternateSpellings": "Rue Campagne Premiere"
  },
  {
    "ID": 193,
    "PlaceName": "Montrouge",
    "GeonamesURL": "http://www.geonames.org/2992017/montrouge.html",
    "Description": "Commune in the southern Parisian suburbs.",
    "AlternateSpellings": ""
  },
  {
    "ID": 194,
    "PlaceName": "Canary Islands",
    "GeonamesURL": "http://www.geonames.org/2520308/canary-islands.html",
    "Description": "Spanish archipelago located off of the northwest coast of Africa.",
    "AlternateSpellings": "Canaries"
  },
  {
    "ID": 195,
    "PlaceName": "Avenue de Wagram",
    "GeonamesURL": "http://www.geonames.org/6618623/paris-17.html",
    "Description": "Street that extends between the Place des Terms and the Place de Wagram, Paris 8 and 17. Beckett and Con Leventhal frequented the Multicolor located there, sometimes referred to as \"Wagram.",
    "AlternateSpellings": "Wagram"
  },
  {
    "ID": 196,
    "PlaceName": "Boulevard de Clichy",
    "GeonamesURL": "http://www.geonames.org/2989487/paris-09-opera.html",
    "Description": "Street that extends from the Place de Clichy to the Rue des Martyrs, Paris 18.",
    "AlternateSpellings": ""
  },
  {
    "ID": 197,
    "PlaceName": "Avenue de la Ropublique",
    "GeonamesURL": "http://www.geonames.org/6618617/paris-11.html",
    "Description": "Street that extends from the Place de la Ropublique to the Boulevard de Monilmontant, Paris 11.",
    "AlternateSpellings": "Republique"
  },
  {
    "ID": 198,
    "PlaceName": "Schumannstrasse",
    "GeonamesURL": "https://www.geonames.org/6944060/deutsches-theater.html",
    "Description": "Street that extends north of Reinhardtstrasse, between Mararet-Steffin-Strasse and Albrechtstrasse, in the Mitte, Berlin 10117.",
    "AlternateSpellings": ""
  },
  {
    "ID": 199,
    "PlaceName": "Meaux",
    "GeonamesURL": "http://www.geonames.org/2994798/meaux.html",
    "Description": "Commune northeast of Paris.",
    "AlternateSpellings": ""
  },
  {
    "ID": 200,
    "PlaceName": "olvsjo",
    "GeonamesURL": "https://www.geonames.org/2726260/aelvsjoe.html",
    "Description": "District in the city of Stockholm, Sweden.",
    "AlternateSpellings": "Alvsjo"
  },
  {
    "ID": 201,
    "PlaceName": "Les Tuileries",
    "GeonamesURL": "http://www.geonames.org/6452747/jardin-des-tuileries.html",
    "Description": "Public garden, Paris 1, adjacent to the Louvre.",
    "AlternateSpellings": "Tuileries"
  },
  {
    "ID": 202,
    "PlaceName": "Palais-Royal",
    "GeonamesURL": "http://www.geonames.org/6545270/palais-royal.html",
    "Description": "Former royal palace, Paris 1; opposite the Louvre.",
    "AlternateSpellings": ""
  },
  {
    "ID": 203,
    "PlaceName": "Malaga",
    "GeonamesURL": "http://www.geonames.org/2514256/malaga.html",
    "Description": "Coastal city in southern Spain.",
    "AlternateSpellings": ""
  },
  {
    "ID": 204,
    "PlaceName": "Yucatan",
    "GeonamesURL": "http://www.geonames.org/3514211/estado-de-yucatan.html",
    "Description": "Peninsula on the eastern coast of Mexico; separates the Gulf of Mexico and the Caribbean Sea.",
    "AlternateSpellings": ""
  },
  {
    "ID": 205,
    "PlaceName": "Cuba",
    "GeonamesURL": "http://www.geonames.org/3562981/republic-of-cuba.html",
    "Description": "",
    "AlternateSpellings": ""
  },
  {
    "ID": 206,
    "PlaceName": "Orly",
    "GeonamesURL": "http://www.geonames.org/2989297/orly.html",
    "Description": "Airport in the suburb of the same name, south of Paris.",
    "AlternateSpellings": ""
  },
  {
    "ID": 207,
    "PlaceName": "Avenue des Champs-olysoes",
    "GeonamesURL": "http://www.geonames.org/6545271/champs-elysees.html",
    "Description": "Parisian thoroughfare leading from the Place de la Concorde to the Place Charles de Gaulle and the Arc de Triomphe, Paris 8.",
    "AlternateSpellings": "Avenue des Champs-Elysees"
  },
  {
    "ID": 208,
    "PlaceName": "Porte Dauphine",
    "GeonamesURL": "http://www.geonames.org/6696468/porte-dauphine.html",
    "Description": "Paris Metro Station, Paris 16, and its neighborhood.",
    "AlternateSpellings": ""
  },
  {
    "ID": 209,
    "PlaceName": "Mexico City",
    "GeonamesURL": "http://www.geonames.org/3530597/mexico-city.html",
    "Description": "Capital of Mexico.",
    "AlternateSpellings": ""
  },
  {
    "ID": 210,
    "PlaceName": "Cambridge University",
    "GeonamesURL": "http://www.geonames.org/7288046/university-of-cambridge.html",
    "Description": "University of Cambridge, Cambridge, England; founded in 1209 and granted a Royal Charter in 1231, it is the second oldest University in the English speaking world.",
    "AlternateSpellings": ""
  },
  {
    "ID": 211,
    "PlaceName": "Quartier latin",
    "GeonamesURL": "http://www.geonames.org/6452726/quartier-latin.html",
    "Description": "Paris, 5 and 6, on the left bank of the Seine.",
    "AlternateSpellings": "Latin Quarter"
  },
  {
    "ID": 212,
    "PlaceName": "Montmorency",
    "GeonamesURL": "http://www.geonames.org/2992229/montmorency.html",
    "Description": "Commune in the northern suburbs of Paris, France.",
    "AlternateSpellings": ""
  },
  {
    "ID": 214,
    "PlaceName": "Cambridge",
    "GeonamesURL": "https://www.geonames.org/4931972/cambridge.html",
    "Description": "City, across the Charles River from Boston, Massachusetts. Location of Harvard University and the Massachusetts Institute of Technology.",
    "AlternateSpellings": ""
  },
  {
    "ID": 215,
    "PlaceName": "Coliemore Harbour",
    "GeonamesURL": "http://www.geonames.org/3230514/coliemore-harbour.html",
    "Description": "Stone harbor in Dalkey, Co. Dublin, Ireland.",
    "AlternateSpellings": ""
  },
  {
    "ID": 216,
    "PlaceName": "",
    "GeonamesURL": "",
    "Description": "",
    "AlternateSpellings": ""
  },
  {
    "ID": 217,
    "PlaceName": "Aare River",
    "GeonamesURL": "http://www.geonames.org/2661878/aare.html",
    "Description": "The longest river that flows entirely within Switzerland; flows through Bern.",
    "AlternateSpellings": "Aar"
  },
  {
    "ID": 218,
    "PlaceName": "Bernese Oberland",
    "GeonamesURL": "http://www.geonames.org/6942179/bernese-oberland.html",
    "Description": "Area of high mountains in Bern, Switzerland, (views of the mountains from Zurich).",
    "AlternateSpellings": "Bernese Highlands\"; \"Berne\"; \"Bern"
  },
  {
    "ID": 219,
    "PlaceName": "Jungfraujoch",
    "GeonamesURL": "http://www.geonames.org/2660208/jungfraujoch.html",
    "Description": "Saddle in the Bernese alps, connecting Jungfrau and Monch peaks.",
    "AlternateSpellings": ""
  },
  {
    "ID": 220,
    "PlaceName": "Boulevard Jourdan",
    "GeonamesURL": "http://www.geonames.org/6618620/paris-14.html",
    "Description": "Street between Porte d' Orloans and Porte de Chantilly, Paris 14; location of Cito Internationale Universitaire de Paris.",
    "AlternateSpellings": ""
  },
  {
    "ID": 221,
    "PlaceName": "Switzerland",
    "GeonamesURL": "http://www.geonames.org/2658434/switzerland.html",
    "Description": "",
    "AlternateSpellings": ""
  },
  {
    "ID": 222,
    "PlaceName": "Tyrol",
    "GeonamesURL": "http://www.geonames.org/2763586/tirol.html",
    "Description": "Alpine state in Western Austria",
    "AlternateSpellings": "Tirol"
  },
  {
    "ID": 223,
    "PlaceName": "16 rue de la Liberto",
    "GeonamesURL": "",
    "Description": "Paris 19, Address of Mlle. Colobert.",
    "AlternateSpellings": ""
  },
  {
    "ID": 224,
    "PlaceName": "Boulevard du Montparnasse",
    "GeonamesURL": "http://www.geonames.org/6545263/montparnasse.html",
    "Description": "Boulevard that extends between the Rue de Sevres and the Boulevard St. Michel, spanning Paris, 6, 14, and 15.",
    "AlternateSpellings": ""
  },
  {
    "ID": 225,
    "PlaceName": "New Haven",
    "GeonamesURL": "http://www.geonames.org/4839366/new-haven.html",
    "Description": "City in Connecticut, Northeastern United States, location of Yale University.",
    "AlternateSpellings": ""
  },
  {
    "ID": 226,
    "PlaceName": "Innsbruck",
    "GeonamesURL": "http://www.geonames.org/2775220/innsbruck.html",
    "Description": "Capital city of Tyrol in western Austria; site of 1964 and 1976 Winter Olympics",
    "AlternateSpellings": ""
  },
  {
    "ID": 227,
    "PlaceName": "Sporacodes",
    "GeonamesURL": "http://www.geonames.org/2973863/speracedes.html",
    "Description": "Commune in southeastern France.",
    "AlternateSpellings": "Speracedes"
  },
  {
    "ID": 228,
    "PlaceName": "Corfu",
    "GeonamesURL": "http://www.geonames.org/2463679/corfu.html",
    "Description": "Greek island in the Ionian Sea.",
    "AlternateSpellings": ""
  },
  {
    "ID": 229,
    "PlaceName": "Boulevard St. Germain",
    "GeonamesURL": "http://www.geonames.org/6944426/boulevard-st-germain.html",
    "Description": "Street that extends from the Rue Aristide Briand to the Pont de Sulley, across the left bank of the river Seine, Paris 5 and 6.",
    "AlternateSpellings": ""
  },
  {
    "ID": 230,
    "PlaceName": "Parc Montsouris",
    "GeonamesURL": "http://www.geonames.org/11789323/parc-montsouris.html",
    "Description": "Public park, bounded on the south by the Boulevard Jourdan, Paris 14.",
    "AlternateSpellings": ""
  },
  {
    "ID": 231,
    "PlaceName": "Rrindogatan 34",
    "GeonamesURL": "",
    "Description": "Stockholm, address of M. Backlund.",
    "AlternateSpellings": "Rrindogatan"
  },
  {
    "ID": 232,
    "PlaceName": "1 Rue Monticelli",
    "GeonamesURL": "",
    "Description": "Paris 14, address of Jean-Jacques Mayoux in 1962.",
    "AlternateSpellings": ""
  },
  {
    "ID": 233,
    "PlaceName": "3 Rue Berlioz",
    "GeonamesURL": "",
    "Description": "Paris 92, Sceaux (southern Paris); address of Werner Spies.",
    "AlternateSpellings": ""
  },
  {
    "ID": 234,
    "PlaceName": "Formentor",
    "GeonamesURL": "http://www.geonames.org/6544445/formentor.html",
    "Description": "Eastern end of a peninsula in Majorca.",
    "AlternateSpellings": "Cap de Formentor"
  },
  {
    "ID": 236,
    "PlaceName": "21 Place Grand Arnauld",
    "GeonamesURL": "",
    "Description": "Le Mesnil St. Denis; address of Elmar Tophoven.",
    "AlternateSpellings": ""
  },
  {
    "ID": 237,
    "PlaceName": "Wales",
    "GeonamesURL": "http://www.geonames.org/2634895/wales.html",
    "Description": "Country in the southwest of Great Britain.",
    "AlternateSpellings": ""
  },
  {
    "ID": 238,
    "PlaceName": "Melilla",
    "GeonamesURL": "http://www.geonames.org/2513947/melilla.html",
    "Description": "Autonomous Spanish city on the North African coast; bordered by Morocco.",
    "AlternateSpellings": ""
  },
  {
    "ID": 239,
    "PlaceName": "Llanfairfechan",
    "GeonamesURL": "http://www.geonames.org/2644081/llanfairfechan.html",
    "Description": "Seaside resort town in northern Wales.",
    "AlternateSpellings": "Llanfairfeckan"
  },
  {
    "ID": 241,
    "PlaceName": "Chichester",
    "GeonamesURL": "http://www.geonames.org/2653192/chichester.html",
    "Description": "City in West Sussex, southeastern England.",
    "AlternateSpellings": ""
  },
  {
    "ID": 242,
    "PlaceName": "Kitzbohel",
    "GeonamesURL": "http://www.geonames.org/2774347/kitzbuehel.html",
    "Description": "Small alpine town in Tyrol region of Western Austria.",
    "AlternateSpellings": "Kitsbuehel\"; \"Kitzbuhel"
  },
  {
    "ID": 243,
    "PlaceName": "San Pellegrino",
    "GeonamesURL": "https://www.geonames.org/6536152/san-pellegrino-terme.html",
    "Description": "Commune in Bregamo, Lombardy, Italy.",
    "AlternateSpellings": ""
  },
  {
    "ID": 244,
    "PlaceName": "Ohio",
    "GeonamesURL": "http://www.geonames.org/5165418/ohio.html",
    "Description": "State in the Midwest of the United States",
    "AlternateSpellings": "OH"
  },
  {
    "ID": 245,
    "PlaceName": "Nuremberg",
    "GeonamesURL": "http://www.geonames.org/2861650/nuernberg.html",
    "Description": "City in southern Germany, in state of Bavaria.",
    "AlternateSpellings": "Nuemberg"
  },
  {
    "ID": 246,
    "PlaceName": "Krefeld",
    "GeonamesURL": "http://www.geonames.org/2884509/krefeld.html",
    "Description": "City in Western Germany, near Dutch border, in state of North Rhine-Westphalia",
    "AlternateSpellings": "Crefeld"
  },
  {
    "ID": 247,
    "PlaceName": "Rome",
    "GeonamesURL": "http://www.geonames.org/3169070/rome.html",
    "Description": "Capital of Italy",
    "AlternateSpellings": ""
  },
  {
    "ID": 248,
    "PlaceName": "Capri",
    "GeonamesURL": "http://www.geonames.org/3180629/isola-di-capri.html",
    "Description": "Island in Italy's Bay of Naples in region of Campania.",
    "AlternateSpellings": ""
  },
  {
    "ID": 249,
    "PlaceName": "Aosta",
    "GeonamesURL": "https://www.geonames.org/3182997/aosta.html",
    "Description": "City in northwestern Italy, in the western Alps, bordered by France and Switzelrand.",
    "AlternateSpellings": ""
  },
  {
    "ID": 250,
    "PlaceName": "Corsica",
    "GeonamesURL": "https://www.geonames.org/3023519/corse.html",
    "Description": "Mediterranean island, west of Italy; retains its Italian culture although part of France since 1768.",
    "AlternateSpellings": ""
  },
  {
    "ID": 251,
    "PlaceName": "Kassel",
    "GeonamesURL": "http://www.geonames.org/6547484/kassel.html",
    "Description": "City in Hesse, central Germany; home of Cissie and \"Boss\" Sinclair, Beckett's aunt and uncle until 1933.",
    "AlternateSpellings": ""
  },
  {
    "ID": 252,
    "PlaceName": "Wilhelmshohe",
    "GeonamesURL": "http://www.geonames.org/2808679/wilhelmshoehe.html",
    "Description": "Palace and landscape park in Kassel, Germany.",
    "AlternateSpellings": "Wilhelmshohe"
  },
  {
    "ID": 253,
    "PlaceName": "Godelland",
    "GeonamesURL": "",
    "Description": "Beckett refers to his holiday plans to go to Zell on Zee in Austria, making a joke with the name of Kurt Godel, a mathematician who studied in Vienna; the Godel theorem (1931) demonstrated the existence of formally undecidable elements in any formal system of arithmetic.",
    "AlternateSpellings": "Austria"
  },
  {
    "ID": 254,
    "PlaceName": "Venice",
    "GeonamesURL": "http://www.geonames.org/3164603/venice.html",
    "Description": "Northern Italian city on Adriatic coast.",
    "AlternateSpellings": "Veneto"
  },
  {
    "ID": 255,
    "PlaceName": "Bogota",
    "GeonamesURL": "https://www.geonames.org/3688689/bogota.html",
    "Description": "Capital of Colombia.",
    "AlternateSpellings": ""
  },
  {
    "ID": 256,
    "PlaceName": "Zell am See",
    "GeonamesURL": "http://www.geonames.org/7873334/zell-am-see.html",
    "Description": "Austrian town on Lake Zell, south of Salzburg.",
    "AlternateSpellings": ""
  },
  {
    "ID": 258,
    "PlaceName": "Yugoslavia",
    "GeonamesURL": "http://www.geonames.org/7500737/federal-republic-of-yugoslavia.html",
    "Description": "A country in Southeastern Eruope from 1918 until 1992. Now: Serbia and Montenegro, Bosnia and Herzegovina, Croatia, Slovenia, Macedonia.",
    "AlternateSpellings": "Jugoslavia\", \"Jugos"
  },
  {
    "ID": 259,
    "PlaceName": "Reuil",
    "GeonamesURL": "http://www.geonames.org/2983851/reuil.html",
    "Description": "Village, Reuil-en-Brie, just north of La Ferte sur Seine, where the Haydens spent the summers.",
    "AlternateSpellings": "Reuil en Brie\"; \"Reuil-en-Brie"
  },
  {
    "ID": 260,
    "PlaceName": "Marne",
    "GeonamesURL": "http://www.geonames.org/2995605/marne.html",
    "Description": "River in northeastern France.",
    "AlternateSpellings": ""
  },
  {
    "ID": 269,
    "PlaceName": "Bavaria",
    "GeonamesURL": "http://www.geonames.org/2951839/bavaria.html",
    "Description": "State in southeastern Germany, bordering Liechtenstein, Austria and the Czech Republic; its major city is Munich.",
    "AlternateSpellings": ""
  },
  {
    "ID": 270,
    "PlaceName": "Georgia",
    "GeonamesURL": "https://www.geonames.org/4197000/georgia.html",
    "Description": "Southeastern state, with a coastline on the Atlantic.",
    "AlternateSpellings": "GA"
  },
  {
    "ID": 271,
    "PlaceName": "Rijeka",
    "GeonamesURL": "http://www.geonames.org/3191648/rijeka.html",
    "Description": "City in Croatia; located on Kvarner Bay, an inlet of the Adriatic Sea.",
    "AlternateSpellings": ""
  },
  {
    "ID": 272,
    "PlaceName": "Antwerp",
    "GeonamesURL": "http://www.geonames.org/2803138/antwerpen.html",
    "Description": "City in nothern Belgium.",
    "AlternateSpellings": ""
  },
  {
    "ID": 273,
    "PlaceName": "Berchtesgaden",
    "GeonamesURL": "http://www.geonames.org/2950881/berchtesgaden.html",
    "Description": "Municipality in German Bavarian Alps; near the Austrian border.",
    "AlternateSpellings": ""
  },
  {
    "ID": 274,
    "PlaceName": "Beirut",
    "GeonamesURL": "http://www.geonames.org/276781/beirut.html",
    "Description": "Capital of Lebanon.",
    "AlternateSpellings": ""
  },
  {
    "ID": 276,
    "PlaceName": "Warsaw",
    "GeonamesURL": "http://www.geonames.org/756135/warsaw.html",
    "Description": "Capital of Poland.",
    "AlternateSpellings": ""
  },
  {
    "ID": 277,
    "PlaceName": "Trafalgar Square",
    "GeonamesURL": "http://www.geonames.org/6619832/trafalgar-square.html",
    "Description": "A public square in London WC2, in front of the National Gallery.",
    "AlternateSpellings": ""
  },
  {
    "ID": 278,
    "PlaceName": "Texas",
    "GeonamesURL": "http://www.geonames.org/4736286/texas.html",
    "Description": "Southern U.S. State, bordering Mexico",
    "AlternateSpellings": "TX"
  },
  {
    "ID": 279,
    "PlaceName": "Guincho Beach",
    "GeonamesURL": "https://www.geonames.org/2572208/praia-do-guincho.html",
    "Description": "Beach in Portugal, northwest of Cascais.",
    "AlternateSpellings": ""
  },
  {
    "ID": 280,
    "PlaceName": "Dalmatia",
    "GeonamesURL": "http://www.geonames.org/3202210/dalmatia.html",
    "Description": "Historical region of Croatia; on the eastern coast of the Adriatic Sea.",
    "AlternateSpellings": ""
  },
  {
    "ID": 281,
    "PlaceName": "Rovinj",
    "GeonamesURL": "http://www.geonames.org/3191518/rovinj.html",
    "Description": "Croatian fishing port on the western Istrian peninsula. From 1918-1947 it belonged to Italy; from 1947-1991 it was ceded to Yugoslavia; from 1991 part of independent Croatia.",
    "AlternateSpellings": ""
  },
  {
    "ID": 282,
    "PlaceName": "Salzburg",
    "GeonamesURL": "http://www.geonames.org/2766824/salzburg.html",
    "Description": "Austrian city with a view of the Eastern Alps, on the border with Germany.",
    "AlternateSpellings": ""
  },
  {
    "ID": 283,
    "PlaceName": "Frognal",
    "GeonamesURL": "http://www.geonames.org/6952596/finchley-road-%26-frognal-railway-station.html",
    "Description": "An area of Hampstead, London NW3, Borough of Camden.",
    "AlternateSpellings": ""
  },
  {
    "ID": 284,
    "PlaceName": "Lausanne",
    "GeonamesURL": "http://www.geonames.org/2659994/lausanne.html",
    "Description": "City in Western Switzerland; on Lake Geneva, near French border.",
    "AlternateSpellings": ""
  },
  {
    "ID": 285,
    "PlaceName": "Boulder",
    "GeonamesURL": "https://www.geonames.org/5574991/boulder.html",
    "Description": "City in the foothills of the Rocky Mountains, northern Colorado.",
    "AlternateSpellings": ""
  },
  {
    "ID": 286,
    "PlaceName": "Vienna",
    "GeonamesURL": "http://www.geonames.org/2761369/vienna.html",
    "Description": "Capital and largest city of Austria.",
    "AlternateSpellings": ""
  },
  {
    "ID": 287,
    "PlaceName": "Hildesheim",
    "GeonamesURL": "http://www.geonames.org/2904789/hildesheim.html",
    "Description": "City in lower Saxony, Northern Germany; famed for its churches.",
    "AlternateSpellings": ""
  },
  {
    "ID": 288,
    "PlaceName": "Spoleto",
    "GeonamesURL": "http://www.geonames.org/3166236/spoleto.html",
    "Description": "City in Perugia, Umbria, north of Rome; site of the Spoleto Festival.",
    "AlternateSpellings": ""
  },
  {
    "ID": 289,
    "PlaceName": "Juan-les-Pins",
    "GeonamesURL": "http://www.geonames.org/3012142/juan-les-pins.html",
    "Description": "Town in Antibes, Alpes-Maritimes; in southeastern France on the Cote d'Azur.",
    "AlternateSpellings": ""
  },
  {
    "ID": 290,
    "PlaceName": "Stromboli",
    "GeonamesURL": "http://www.geonames.org/2522991/isola-stromboli.html",
    "Description": "Small island in the Tyrrhenian Sea off north coast of Sicily.",
    "AlternateSpellings": ""
  },
  {
    "ID": 291,
    "PlaceName": "Mount Etna",
    "GeonamesURL": "http://www.geonames.org/2524810/monte-etna.html",
    "Description": "Active volcano on the east coast of Sicily, Italy; between the cities of Messina and Catania.",
    "AlternateSpellings": ""
  },
  {
    "ID": 292,
    "PlaceName": "Mount Vesuvius",
    "GeonamesURL": "http://www.geonames.org/3164481/vesuvius.html",
    "Description": "Active volcano on the Gulf of Naples in Campania, Italy; east of Naples.",
    "AlternateSpellings": ""
  },
  {
    "ID": 293,
    "PlaceName": "Colorado",
    "GeonamesURL": "https://www.geonames.org/5417618/colorado.html",
    "Description": "Western state, United States.",
    "AlternateSpellings": "CO"
  },
  {
    "ID": 294,
    "PlaceName": "",
    "GeonamesURL": "",
    "Description": "",
    "AlternateSpellings": ""
  },
  {
    "ID": 295,
    "PlaceName": "Istria",
    "GeonamesURL": "http://www.geonames.org/3337514/istarska-zupanija.html",
    "Description": "Peninsula in the Adriatic sea; currently shared by Croatia, Italy and Slovenia.",
    "AlternateSpellings": "Hisgtria"
  },
  {
    "ID": 296,
    "PlaceName": "Moscow",
    "GeonamesURL": "http://www.geonames.org/524894/moskva.html",
    "Description": "Capital and largest city in Russia.",
    "AlternateSpellings": ""
  },
  {
    "ID": 298,
    "PlaceName": "Ascona",
    "GeonamesURL": "http://www.geonames.org/7285107/ascona.html",
    "Description": "Municipality in the district of Locarno in Switzerland; on Lake Maggiore near Italian border.",
    "AlternateSpellings": ""
  },
  {
    "ID": 299,
    "PlaceName": "Russia",
    "GeonamesURL": "http://www.geonames.org/2017370/russian-federation.html",
    "Description": "",
    "AlternateSpellings": ""
  },
  {
    "ID": 300,
    "PlaceName": "Tarbert",
    "GeonamesURL": "http://www.geonames.org/2961267/tarbert.html",
    "Description": "Town in the peninsula of Co. Kerry, southwestern Ireland; home town of Thomas MacGreevy.",
    "AlternateSpellings": ""
  },
  {
    "ID": 301,
    "PlaceName": "Oostkapelle",
    "GeonamesURL": "http://www.geonames.org/2749362/oostkapelle.html",
    "Description": "A seaside town in Zeeland, the Netherlands.",
    "AlternateSpellings": ""
  },
  {
    "ID": 302,
    "PlaceName": "Hampstead",
    "GeonamesURL": "http://www.geonames.org/2647553/hampstead.html",
    "Description": "Affluent residential community, bordering Hampstead Heath, London NW3, Borough of Camden.",
    "AlternateSpellings": ""
  },
  {
    "ID": 303,
    "PlaceName": "Maryland",
    "GeonamesURL": "https://www.geonames.org/4361885/maryland.html",
    "Description": "State, in the mid-Atlantic region of the United States.",
    "AlternateSpellings": ""
  },
  {
    "ID": 304,
    "PlaceName": "Oxford",
    "GeonamesURL": "http://www.geonames.org/2640729/oxford.html",
    "Description": "A city in southeast England, site of the University of Oxford.",
    "AlternateSpellings": ""
  },
  {
    "ID": 305,
    "PlaceName": "Cheltenham",
    "GeonamesURL": "http://www.geonames.org/2653261/cheltenham.html",
    "Description": "Town in Gloucestershire, southwest England.",
    "AlternateSpellings": ""
  },
  {
    "ID": 306,
    "PlaceName": "Haifa",
    "GeonamesURL": "https://www.geonames.org/294801/haifa.html",
    "Description": "A port city on the northern coast of Israel.",
    "AlternateSpellings": ""
  },
  {
    "ID": 307,
    "PlaceName": "Costa Brava",
    "GeonamesURL": "http://www.geonames.org/3127668/costa-brava.html",
    "Description": "A coastal region of Catalonia in northeastern Spain; stretches from northeast of Barcelona to French border.",
    "AlternateSpellings": ""
  },
  {
    "ID": 308,
    "PlaceName": "17 Oren St., Romema",
    "GeonamesURL": "https://www.geonames.org/8266255/romema.html",
    "Description": "Address of Mr. Matti Megged in Haifa, Israel in 1967.",
    "AlternateSpellings": ""
  },
  {
    "ID": 309,
    "PlaceName": "Rue Brancion",
    "GeonamesURL": "http://www.geonames.org/9176752/home-moderne-hotel.html",
    "Description": "Street that extends between the Place d'Alleray and the Port de Brancion, Paris 15.",
    "AlternateSpellings": ""
  },
  {
    "ID": 310,
    "PlaceName": "Glencullen Way",
    "GeonamesURL": "",
    "Description": "A hiking path in Co. Dublin and Co. Wicklow, that leads from valley of Glencullen to Two Rock, Three Rock, and Prince William's Seat.",
    "AlternateSpellings": ""
  },
  {
    "ID": 311,
    "PlaceName": "40-42 William IVth Street",
    "GeonamesURL": "",
    "Description": "London address of Chatto and Windus, Ltd., in 1970.",
    "AlternateSpellings": ""
  },
  {
    "ID": 312,
    "PlaceName": "144 Bld. du Montparnasse",
    "GeonamesURL": "",
    "Description": "Address of A.J. Leventhal, Paris 14 in 1970.",
    "AlternateSpellings": ""
  },
  {
    "ID": 313,
    "PlaceName": "Hanover",
    "GeonamesURL": "https://www.geonames.org/5087168/hanover.html",
    "Description": "City in New Hampshire, location of Dartmouth College.",
    "AlternateSpellings": ""
  },
  {
    "ID": 314,
    "PlaceName": "Blackrock",
    "GeonamesURL": "https://www.geonames.org/2966131/blackrock.html",
    "Description": "A suburb of Dublin, southeast of the city on Dublin Bay.",
    "AlternateSpellings": ""
  },
  {
    "ID": 315,
    "PlaceName": "Valencia",
    "GeonamesURL": "https://www.geonames.org/5405288/valencia.html",
    "Description": "A neighborhood in Santa Clarita, Los Angeles, California; location of California Institute of the Arts.",
    "AlternateSpellings": ""
  },
  {
    "ID": 316,
    "PlaceName": "Seville",
    "GeonamesURL": "",
    "Description": "Capital of the Andalusia region of Spain.",
    "AlternateSpellings": ""
  },
  {
    "ID": 317,
    "PlaceName": "Calabria",
    "GeonamesURL": "",
    "Description": "Southwestern Italy, occupies the \"toe\" of the country's \"boot\".",
    "AlternateSpellings": ""
  },
  {
    "ID": 322,
    "PlaceName": "Virginia",
    "GeonamesURL": "http://www.geonames.org/6254928/virginia.html",
    "Description": "Mid-Atlantic state on the eastern seaboard, US.",
    "AlternateSpellings": "VA"
  },
  {
    "ID": 323,
    "PlaceName": "Santa Margherita, Ligure",
    "GeonamesURL": "https://www.geonames.org/6537065/santa-margherita-ligure.html",
    "Description": "A commune 35 kilometers southeast of Genoa, Italy, on the Ligurian coast.",
    "AlternateSpellings": "Ste. Margherita\"; \"Sta. Margherita\"; \"Sta. M."
  },
  {
    "ID": 324,
    "PlaceName": "Wiesbaden",
    "GeonamesURL": "http://www.geonames.org/2809346/wiesbaden.html",
    "Description": "City in central western Germany; capital of the federal state of Hesse.",
    "AlternateSpellings": ""
  },
  {
    "ID": 325,
    "PlaceName": "Troyes",
    "GeonamesURL": "http://www.geonames.org/2971549/troyes.html",
    "Description": "Commune and capital of Aube in north-central France, on the Seine River.",
    "AlternateSpellings": ""
  },
  {
    "ID": 326,
    "PlaceName": "Pont de Bercy",
    "GeonamesURL": "http://www.geonames.org/8435831/pont-de-bercy.html",
    "Description": "Bridge over the Seine, Paris 12 and 13.",
    "AlternateSpellings": ""
  },
  {
    "ID": 327,
    "PlaceName": "Place doItalie",
    "GeonamesURL": "http://www.geonames.org/7304520/citadines-paris-place-d-italie-apart-hotel-in-paris.html",
    "Description": "Public square with a metro stop, Paris 13.",
    "AlternateSpellings": ""
  },
  {
    "ID": 328,
    "PlaceName": "Reading",
    "GeonamesURL": "https://www.geonames.org/2639577/reading.html",
    "Description": "Town in Berkshire, west of London; site of the University of Reading.",
    "AlternateSpellings": ""
  },
  {
    "ID": 329,
    "PlaceName": "Belgium",
    "GeonamesURL": "http://www.geonames.org/2802361/kingdom-of-belgium.html",
    "Description": "",
    "AlternateSpellings": ""
  },
  {
    "ID": 330,
    "PlaceName": "Rue Condorcet",
    "GeonamesURL": "http://www.geonames.org/9844560/paris-02-ancien-quartier-faubourg-montmartre.html",
    "Description": "Street running between the Rue des Martyrs and the Rue de Maubeuge, Paris 9.",
    "AlternateSpellings": ""
  },
  {
    "ID": 331,
    "PlaceName": "Saint-Lo",
    "GeonamesURL": "http://www.geonames.org/2978758/saint-lo.html",
    "Description": "Capital of Manche, Normandy, northwestern France; location of the Irish Red Cross Hospital with which Beckett worked in 1944-45.",
    "AlternateSpellings": "St. Lo\"; \"St Lo\"; \"Saint Lo\"; \"Saint-Lo"
  },
  {
    "ID": 332,
    "PlaceName": "Vire",
    "GeonamesURL": "http://www.geonames.org/2967972/vire.html",
    "Description": "River and town in Calvados, Normandy, northwestern France.",
    "AlternateSpellings": ""
  },
  {
    "ID": 333,
    "PlaceName": "Goteborg",
    "GeonamesURL": "https://www.geonames.org/2711537/goeteborg.html",
    "Description": "City on the Gota olv river, on the western coast of Sweden.",
    "AlternateSpellings": "Goteborg\"; \"Gothenburg"
  },
  {
    "ID": 334,
    "PlaceName": "Cluny",
    "GeonamesURL": "http://www.geonames.org/3024534/cluny.html",
    "Description": "Commune in Saone-et-Loire, Bourgogne-Franche-Comto, eastern France.",
    "AlternateSpellings": ""
  },
  {
    "ID": 335,
    "PlaceName": "Rue de Vaugirard",
    "GeonamesURL": "http://www.geonames.org/2970479/paris-15-vaugirard.html",
    "Description": "Street running between the Porte de Versailles and the Rue de Renne, Paris 15 and 6.",
    "AlternateSpellings": ""
  },
  {
    "ID": 337,
    "PlaceName": "Finland",
    "GeonamesURL": "http://www.geonames.org/660013/republic-of-finland.html",
    "Description": "",
    "AlternateSpellings": ""
  },
  {
    "ID": 338,
    "PlaceName": "Eugene",
    "GeonamesURL": "https://www.geonames.org/5725846/eugene.html",
    "Description": "City in Oregon along the Willamette River; site of the University of Oregon.",
    "AlternateSpellings": ""
  },
  {
    "ID": 339,
    "PlaceName": "La Rive Gauche",
    "GeonamesURL": "http://www.geonames.org/2997000/paris-06-luxembourg.html",
    "Description": "Left (southern) Bank of the River Seine; Paris 5 and 6.",
    "AlternateSpellings": "Left Bank"
  },
  {
    "ID": 350,
    "PlaceName": "66 Rue du Pore Corentin",
    "GeonamesURL": "http://www.geonames.org/9176964/hotel-virgina.html",
    "Description": "Hotel Virginia, Paris 14; Fernando Arrabal's address in 1959.",
    "AlternateSpellings": "Rue du Pere Corentin"
  },
  {
    "ID": 351,
    "PlaceName": "Skopje",
    "GeonamesURL": "http://www.geonames.org/785842/skopje.html",
    "Description": "Capital and largest city of the Republic of Macedonia.",
    "AlternateSpellings": ""
  },
  {
    "ID": 352,
    "PlaceName": "Carrouges",
    "GeonamesURL": "http://www.geonames.org/3028512/carrouges.html",
    "Description": "Commune in Orne, Normandy, northwestern France.",
    "AlternateSpellings": ""
  },
  {
    "ID": 353,
    "PlaceName": "Wicklow Mountains",
    "GeonamesURL": "http://www.geonames.org/2960931/wicklow-mountains.html",
    "Description": "South of Dublin; occupy County Wicklow and portions of Counties Dublin, Wexford and Carlow.",
    "AlternateSpellings": "Dublin Mountains\";"
  },
  {
    "ID": 354,
    "PlaceName": "Laragh",
    "GeonamesURL": "http://www.geonames.org/2963028/laragh.html",
    "Description": "Small village in Co. Wicklow, Ireland.",
    "AlternateSpellings": "Lara"
  },
  {
    "ID": 355,
    "PlaceName": "Glendalough",
    "GeonamesURL": "http://www.geonames.org/2964064/vale-of-glendalough.html",
    "Description": "Glacial valley and lake, Co. Wicklow, known for its 6th c. monastic settlement by Saint Kevin.",
    "AlternateSpellings": ""
  },
  {
    "ID": 356,
    "PlaceName": "Shottery",
    "GeonamesURL": "http://www.geonames.org/2963324/killiney.html",
    "Description": "Overlooks Killiney Beach, Co. Dublin; Frank Beckett's home from the 1950s.",
    "AlternateSpellings": "The Shottery"
  },
  {
    "ID": 358,
    "PlaceName": "Minneapolis",
    "GeonamesURL": "http://www.geonames.org/5037649/minneapolis.html",
    "Description": "Major city in Minnesota on the Mississippi River, northern midwest, United States.",
    "AlternateSpellings": ""
  },
  {
    "ID": 359,
    "PlaceName": "East Hampton",
    "GeonamesURL": "http://www.geonames.org/5115871/east-hampton.html",
    "Description": "Town in Suffolk County, New York on the southern shore of Long Island; very affluent.",
    "AlternateSpellings": ""
  },
  {
    "ID": 360,
    "PlaceName": "Central Park",
    "GeonamesURL": "http://www.geonames.org/5112085/central-park.html",
    "Description": "Public park in Manhattan, NYC, designed by Frederick Law Olmstead.",
    "AlternateSpellings": ""
  },
  {
    "ID": 361,
    "PlaceName": "Harlem",
    "GeonamesURL": "http://www.geonames.org/5120034/harlem.html",
    "Description": "Neighborhood in the northern section of Manhattan, NYC; known as major African American residential, cultural and business center.",
    "AlternateSpellings": ""
  },
  {
    "ID": 362,
    "PlaceName": "Ledlanet",
    "GeonamesURL": "http://www.geonames.org/2645365/kinross.html",
    "Description": "Town in historic Co. Kinross in Eastern Scotland; location of John Calder's summer home, where he hosted the \"Ledlanet Festival\" (1962-1972).",
    "AlternateSpellings": ""
  },
  {
    "ID": 363,
    "PlaceName": "Bowery",
    "GeonamesURL": "http://www.geonames.org/8436464/bowery.html",
    "Description": "Neighborhood in the southern portion of Manhattan. The area was once the skid row of New York City.",
    "AlternateSpellings": ""
  },
  {
    "ID": 364,
    "PlaceName": "Queens",
    "GeonamesURL": "http://www.geonames.org/5133273/queens.html",
    "Description": "Borough of NYC; on Long Island adjacent to Brooklyn and across East River from Manhattan.",
    "AlternateSpellings": ""
  },
  {
    "ID": 365,
    "PlaceName": "Chinatown",
    "GeonamesURL": "http://www.geonames.org/6944374/chinatown.html",
    "Description": "Lower Manhattan neighborhood, NYC.",
    "AlternateSpellings": ""
  },
  {
    "ID": 366,
    "PlaceName": "Hyde Park",
    "GeonamesURL": "http://www.geonames.org/2646325/hyde-park.html",
    "Description": "London W2, largest of Royal Parks in the city.",
    "AlternateSpellings": ""
  },
  {
    "ID": 367,
    "PlaceName": "Mayfair",
    "GeonamesURL": "http://www.geonames.org/2642878/mayfair.html",
    "Description": "London W1, City of Westminster.",
    "AlternateSpellings": ""
  },
  {
    "ID": 368,
    "PlaceName": "Shepherdos Bush",
    "GeonamesURL": "http://www.geonames.org/2638043/shepherds-bush.html",
    "Description": "London W12, Hammersmith and Fulham.",
    "AlternateSpellings": ""
  },
  {
    "ID": 369,
    "PlaceName": "Lyon",
    "GeonamesURL": "http://www.geonames.org/2996944/lyon.html",
    "Description": "City in region of Auvergne-Rhone-Alpes, South France (le Midi).",
    "AlternateSpellings": ""
  },
  {
    "ID": 370,
    "PlaceName": "opinay-sur-Seine",
    "GeonamesURL": "http://www.geonames.org/3020020/epinay-sur-seine.html",
    "Description": "Commune in northern suburb of Paris.",
    "AlternateSpellings": "\"opinay\"; \"Epinay-sur-Seine\"; \"Epinay"
  },
  {
    "ID": 371,
    "PlaceName": "Maison de la Radio",
    "GeonamesURL": "http://www.geonames.org/2988394/paris-16-passy.html",
    "Description": "Paris 16; offices of Radio France.",
    "AlternateSpellings": ""
  },
  {
    "ID": 372,
    "PlaceName": "Oregon",
    "GeonamesURL": "https://www.geonames.org/5744337/oregon.html",
    "Description": "State in the Pacific northwest, United States.",
    "AlternateSpellings": ""
  },
  {
    "ID": 373,
    "PlaceName": "Hong Kong",
    "GeonamesURL": "http://www.geonames.org/1819729/hong-kong.html",
    "Description": "Special administrative region in southeastern China; British colony until 1997; center of global commerce.",
    "AlternateSpellings": ""
  },
  {
    "ID": 374,
    "PlaceName": "Africa",
    "GeonamesURL": "http://www.geonames.org/6255146/africa.html",
    "Description": "",
    "AlternateSpellings": ""
  },
  {
    "ID": 375,
    "PlaceName": "3 Rue de Valois",
    "GeonamesURL": "",
    "Description": "Paris 1; Address of the Ministore de la Culture.",
    "AlternateSpellings": ""
  },
  {
    "ID": 376,
    "PlaceName": "The Maritime Alps",
    "GeonamesURL": "http://www.geonames.org/3173906/maritime-alps.html",
    "Description": "Southernmost mountain range in Southwestern Alps, France.",
    "AlternateSpellings": ""
  },
  {
    "ID": 377,
    "PlaceName": "Sicily",
    "GeonamesURL": "https://www.geonames.org/2523118/sicily.html",
    "Description": "The largest island in the Mediterranean Sea, between Italy and Tunisia.",
    "AlternateSpellings": ""
  },
  {
    "ID": 378,
    "PlaceName": "18 Brewer Street",
    "GeonamesURL": "http://www.geonames.org/6545173/soho.html",
    "Description": "London W1, Soho, Borough of Westminster; address of Calder and Boyars until 1975.",
    "AlternateSpellings": ""
  },
  {
    "ID": 379,
    "PlaceName": "Durham",
    "GeonamesURL": "http://www.geonames.org/2650628/durham.html",
    "Description": "City in northeastern England, south of Newcastle upon Tyne; location of the University of Durham.",
    "AlternateSpellings": ""
  },
  {
    "ID": 380,
    "PlaceName": "Grenoble",
    "GeonamesURL": "http://www.geonames.org/3014728/grenoble.html",
    "Description": "City in the Auvergne-Rhone-Alpes region, southwestern France.",
    "AlternateSpellings": ""
  },
  {
    "ID": 381,
    "PlaceName": "Montpellier",
    "GeonamesURL": "http://www.geonames.org/2992166/montpellier.html",
    "Description": "City in southern France, on the Mediterranean Sea, west of Marseille.",
    "AlternateSpellings": ""
  },
  {
    "ID": 382,
    "PlaceName": "111 W 57 St.",
    "GeonamesURL": "",
    "Description": "New York address of Jack MacGowran c/o Robert Lantz Ltd. in 1971.",
    "AlternateSpellings": ""
  },
  {
    "ID": 383,
    "PlaceName": "Greek Street",
    "GeonamesURL": "http://www.geonames.org/6545173/soho.html",
    "Description": "London W1, street in Soho leading south from Soho Square to Shaftesbury Avenue, Borough: City of Westminster.",
    "AlternateSpellings": ""
  },
  {
    "ID": 384,
    "PlaceName": "600 W. 218th Street",
    "GeonamesURL": "http://www.geonames.org/5122280/inwood.html",
    "Description": "Inwood neighborhood of Manhattan; address of Julius Horovitz in 1971.",
    "AlternateSpellings": ""
  },
  {
    "ID": 385,
    "PlaceName": "Fitzroy Square",
    "GeonamesURL": "http://www.geonames.org/6545172/fitzrovia.html",
    "Description": "Square in Fitzrovia, London W1.",
    "AlternateSpellings": ""
  },
  {
    "ID": 386,
    "PlaceName": "Lower Gt. George's Street",
    "GeonamesURL": "http://www.geonames.org/6941716/dun-laoghaire-rathdown.html",
    "Description": "Dublin; address of Brendan Smith in 1957.",
    "AlternateSpellings": ""
  },
  {
    "ID": 389,
    "PlaceName": "Newcastle",
    "GeonamesURL": "http://www.geonames.org/2641673/newcastle-upon-tyne.html",
    "Description": "City in northeast Engand.",
    "AlternateSpellings": "Newcastle upon Tyne"
  },
  {
    "ID": 390,
    "PlaceName": "Stuttgart",
    "GeonamesURL": "http://www.geonames.org/2825297/stuttgart.html",
    "Description": "City in Southwest Germany; location of Soddeutscher Rundfunk.",
    "AlternateSpellings": ""
  },
  {
    "ID": 392,
    "PlaceName": "Lille",
    "GeonamesURL": "https://www.geonames.org/2998324/lille.html",
    "Description": "Capital city of Hauts-de-France, northern France, near the border with Belgium.",
    "AlternateSpellings": ""
  },
  {
    "ID": 393,
    "PlaceName": "Colombes",
    "GeonamesURL": "http://www.geonames.org/3024266/colombes.html",
    "Description": "Commune in Northwestern suburbs of Paris.",
    "AlternateSpellings": ""
  },
  {
    "ID": 394,
    "PlaceName": "Sloane Square",
    "GeonamesURL": "http://www.geonames.org/6954802/sloane-square-underground-station.html",
    "Description": "Square in central London, on the boundaries of Knightsbridge, Belgravia, and Chelsea. Short hand reference to The Royal Court Theatre which is nearby.",
    "AlternateSpellings": ""
  },
  {
    "ID": 395,
    "PlaceName": "Apollonia",
    "GeonamesURL": "",
    "Description": "Generic reference to Greece, after the Greek god Apollo.",
    "AlternateSpellings": "Apolonia"
  },
  {
    "ID": 396,
    "PlaceName": "Val d'Isore",
    "GeonamesURL": "http://www.geonames.org/2971074/val-d-isere.html",
    "Description": "Commune and ski resort in southwestern France; near the Italian border.",
    "AlternateSpellings": "Val d'Isere\";\"Val de Isere\";\"Val-d'Isore\"; \"Vale-d'Isere"
  },
  {
    "ID": 397,
    "PlaceName": "Victoria",
    "GeonamesURL": "http://www.geonames.org/6690579/victoria.html",
    "Description": "London SW1, small district in City of Westminster; location of Victoria Station.",
    "AlternateSpellings": ""
  },
  {
    "ID": 398,
    "PlaceName": "Hampshire",
    "GeonamesURL": "http://www.geonames.org/2647554/hampshire.html",
    "Description": "A county SW of London, on the southern coast of England.",
    "AlternateSpellings": ""
  },
  {
    "ID": 399,
    "PlaceName": "Cairo",
    "GeonamesURL": "https://www.geonames.org/360630/cairo.html",
    "Description": "Capital city of Egypt on the Nile River.",
    "AlternateSpellings": ""
  },
  {
    "ID": 400,
    "PlaceName": "Hallam Court",
    "GeonamesURL": "http://www.geonames.org/6545170/marylebone.html",
    "Description": "London W1, An apartment building on Hallam Street, Marylebone, London W1. Barbara Bray often stayed there when in London.",
    "AlternateSpellings": ""
  },
  {
    "ID": 401,
    "PlaceName": "St. Remo",
    "GeonamesURL": "https://www.geonames.org/3167777/san-remo.html",
    "Description": "Coastal city in northwestern Italy, on the Italian Riviera.",
    "AlternateSpellings": "Sanremo"
  },
  {
    "ID": 402,
    "PlaceName": "Rue Git-le-Coeur",
    "GeonamesURL": "http://www.geonames.org/2997000/paris-06-luxembourg.html",
    "Description": "Street running from the Rue Saint-Andro des Arts and the Quai des Grands Augustins, Paris 6.",
    "AlternateSpellings": ""
  },
  {
    "ID": 403,
    "PlaceName": "Connecticut",
    "GeonamesURL": "http://www.geonames.org/4831725/connecticut.html",
    "Description": "Northeastern State in the United States",
    "AlternateSpellings": "CT"
  },
  {
    "ID": 404,
    "PlaceName": "Long Island",
    "GeonamesURL": "http://www.geonames.org/5125123/long-island.html",
    "Description": "Island in Long Island Sound; it is adjacent to New York City, separated from the Bronx and the island of Manhattan by the East River.",
    "AlternateSpellings": ""
  },
  {
    "ID": 405,
    "PlaceName": "Brooklyn Bridge",
    "GeonamesURL": "http://www.geonames.org/5110306/brooklyn-bridge.html",
    "Description": "Bridge connecting Manhattan to Brooklyn.",
    "AlternateSpellings": ""
  },
  {
    "ID": 406,
    "PlaceName": "Catherine Street",
    "GeonamesURL": "http://www.geonames.org/2652222/covent-garden.html",
    "Description": "London WC2, street in Covent Garden, Boroughs of Camden and Westminster, location of many theatres.",
    "AlternateSpellings": ""
  },
  {
    "ID": 407,
    "PlaceName": "Drome",
    "GeonamesURL": "https://www.geonames.org/3020781/departement-de-la-drome.html",
    "Description": "Departement in southeastern France.",
    "AlternateSpellings": ""
  },
  {
    "ID": 409,
    "PlaceName": "Darmstadt",
    "GeonamesURL": "https://www.geonames.org/2938913/darmstadt.html",
    "Description": "City near Frankfurt in southwest Germany.",
    "AlternateSpellings": ""
  },
  {
    "ID": 411,
    "PlaceName": "Greenwich Village",
    "GeonamesURL": "http://www.geonames.org/5119418/greenwich-village.html",
    "Description": "Neighborhood in westside of Lower Manhattan, New York. Center of the 1960s counterculture.",
    "AlternateSpellings": "The Village"
  },
  {
    "ID": 412,
    "PlaceName": "Hamburg",
    "GeonamesURL": "http://www.geonames.org/2911298/hamburg.html",
    "Description": "Major port city, connected to the North Sea by the Elbe River.",
    "AlternateSpellings": ""
  },
  {
    "ID": 413,
    "PlaceName": "Ottawa",
    "GeonamesURL": "https://www.geonames.org/6094817/ottawa.html",
    "Description": "Capital of Canada, located the province of Ontario.",
    "AlternateSpellings": "Ottowa"
  },
  {
    "ID": 414,
    "PlaceName": "Sardinia",
    "GeonamesURL": "http://www.geonames.org/2523227/sardinia.html",
    "Description": "Autonomous region of Italy, large island in Mediterranean Sea, south of Corsica.",
    "AlternateSpellings": ""
  },
  {
    "ID": 415,
    "PlaceName": "Rue Ballu",
    "GeonamesURL": "http://www.geonames.org/2989487/paris-09-opera.html",
    "Description": "Street that extends from the Rue de Clichy to the Rue Blanche, Paris 9.",
    "AlternateSpellings": ""
  },
  {
    "ID": 416,
    "PlaceName": "Sammeron",
    "GeonamesURL": "http://www.geonames.org/2976285/sammeron.html",
    "Description": "North-Central France, commune in Seine-et-Marne dopartment in the ole-de-France region.",
    "AlternateSpellings": ""
  },
  {
    "ID": 417,
    "PlaceName": "Poland",
    "GeonamesURL": "https://www.geonames.org/798544/republic-of-poland.html",
    "Description": "",
    "AlternateSpellings": ""
  },
  {
    "ID": 418,
    "PlaceName": "Piccadilly",
    "GeonamesURL": "http://www.geonames.org/6615534/piccadilly.html",
    "Description": "London SW1, road and public space in the City of Westminster.",
    "AlternateSpellings": "Picadilly"
  },
  {
    "ID": 419,
    "PlaceName": "Ontario",
    "GeonamesURL": "https://www.geonames.org/6093943/ontario.html",
    "Description": "Province in east-central Canada.",
    "AlternateSpellings": ""
  },
  {
    "ID": 420,
    "PlaceName": "",
    "GeonamesURL": "",
    "Description": "",
    "AlternateSpellings": ""
  },
  {
    "ID": 421,
    "PlaceName": "St. James Palace",
    "GeonamesURL": "http://www.geonames.org/6615507/st-james-s.html",
    "Description": "London SW1, City of Westminster.",
    "AlternateSpellings": "Saint James\"; \"Le Palais de St. James"
  },
  {
    "ID": 422,
    "PlaceName": "Avenue Foch",
    "GeonamesURL": "http://www.geonames.org/6947054/avenue-foch.html",
    "Description": "Street that extends from otoile / Place Charles de Gaulleoto Porte Dauphine, Paris 16.",
    "AlternateSpellings": ""
  },
  {
    "ID": 423,
    "PlaceName": "Selmun",
    "GeonamesURL": "https://www.geonames.org/2564291/selmun.html",
    "Description": "Countryside hamlet in the village of Mellieha, on Malta.",
    "AlternateSpellings": ""
  },
  {
    "ID": 424,
    "PlaceName": "",
    "GeonamesURL": "",
    "Description": "",
    "AlternateSpellings": ""
  },
  {
    "ID": 425,
    "PlaceName": "Pavillon, Porte Dauphine",
    "GeonamesURL": "http://www.geonames.org/6696468/porte-dauphine.html",
    "Description": "Event venue, 2 Place du Marochal de Lattre de Tassigny, Paris 16; an ornate building dating from 1913.",
    "AlternateSpellings": ""
  },
  {
    "ID": 426,
    "PlaceName": "Burrough Green",
    "GeonamesURL": "http://www.geonames.org/7670881/burrough-green.html",
    "Description": "Village in Surrey, England; a village of the same name also exists in Cambridgeshire.",
    "AlternateSpellings": "B. G."
  },
  {
    "ID": 427,
    "PlaceName": "Harwich",
    "GeonamesURL": "http://www.geonames.org/2647383/harwich.html",
    "Description": "Coastal town in Essex, England.",
    "AlternateSpellings": ""
  },
  {
    "ID": 428,
    "PlaceName": "Umbria",
    "GeonamesURL": "http://www.geonames.org/3165048/umbria.html",
    "Description": "Region in central Italy, bordering Tuscany.",
    "AlternateSpellings": ""
  },
  {
    "ID": 429,
    "PlaceName": "Bombay",
    "GeonamesURL": "https://www.geonames.org/1275339/mumbai.html",
    "Description": "Now known as Mumbai. Large city on India's west coast.",
    "AlternateSpellings": ""
  },
  {
    "ID": 430,
    "PlaceName": "Ile de France",
    "GeonamesURL": "http://www.geonames.org/3012874/ile-de-france.html",
    "Description": "North-Central region surrounding Paris.",
    "AlternateSpellings": "ole-de-France\"; \"rogion parisienne\";"
  },
  {
    "ID": 431,
    "PlaceName": "Champagne",
    "GeonamesURL": "http://www.geonames.org/3027257/champagne-ardenne.html",
    "Description": "Historical province in northeastern France. Now wine region that encompasses the dopartement of Marne and parts of Ardennes, Meuse, Haute-Marne, Aube, Yonne, Seine-et-Marne, and Aisne.",
    "AlternateSpellings": ""
  },
  {
    "ID": 432,
    "PlaceName": "Casablanca",
    "GeonamesURL": "http://www.geonames.org/2553604/casablanca.html",
    "Description": "City in west-central Morocco, on the Atlantic Ocean.",
    "AlternateSpellings": ""
  },
  {
    "ID": 433,
    "PlaceName": "Valletta",
    "GeonamesURL": "https://www.geonames.org/2562305/valletta.html",
    "Description": "Capital of Malta.",
    "AlternateSpellings": ""
  },
  {
    "ID": 434,
    "PlaceName": "Ghajn Tuffieha",
    "GeonamesURL": "https://www.geonames.org/2563079/ghajn-tuffieha.html",
    "Description": "A coastal part of Manikata Village in Malta.",
    "AlternateSpellings": "Ghain Tuffieha"
  },
  {
    "ID": 435,
    "PlaceName": "Highgate",
    "GeonamesURL": "http://www.geonames.org/2646958/highgate.html",
    "Description": "Section of London N6, northeast of Hampstead Heath.",
    "AlternateSpellings": ""
  },
  {
    "ID": 436,
    "PlaceName": "Havana",
    "GeonamesURL": "http://www.geonames.org/3553478/havana.html",
    "Description": "Capital of Cuba.",
    "AlternateSpellings": ""
  },
  {
    "ID": 437,
    "PlaceName": "Greece",
    "GeonamesURL": "http://www.geonames.org/254166/rovoliarion.html",
    "Description": "",
    "AlternateSpellings": ""
  },
  {
    "ID": 438,
    "PlaceName": "187 Comptons Lane, Horsham, Sussex",
    "GeonamesURL": "https://www.geonames.org/2646557/horsham.html",
    "Description": "Address of Lilian Taylor, in 1971.",
    "AlternateSpellings": ""
  },
  {
    "ID": 439,
    "PlaceName": "Dubrovnik",
    "GeonamesURL": "http://www.geonames.org/3201047/dubrovnik.html",
    "Description": "City in Southern Croatia on the Adriatic Sea; in Yugoslavia prior to 1991.",
    "AlternateSpellings": ""
  },
  {
    "ID": 440,
    "PlaceName": "71 Seward Street, San Francisco, California",
    "GeonamesURL": "http://www.geonames.org/5391959/san-francisco.html",
    "Description": "Address of Ruby Cohn in 1965.",
    "AlternateSpellings": ""
  },
  {
    "ID": 441,
    "PlaceName": "Place de la Convention",
    "GeonamesURL": "http://www.geonames.org/2970479/paris-15-vaugirard.html",
    "Description": "Small square, Paris 15.",
    "AlternateSpellings": ""
  },
  {
    "ID": 442,
    "PlaceName": "Amboise",
    "GeonamesURL": "http://www.geonames.org/3037902/amboise.html",
    "Description": "Town in the Loire Valley, central France.",
    "AlternateSpellings": ""
  },
  {
    "ID": 443,
    "PlaceName": "Nice",
    "GeonamesURL": "http://www.geonames.org/2990440/nice.html",
    "Description": "Capital of the Alpes-Maritime on the French Riviera, southeastern coast of France.",
    "AlternateSpellings": ""
  },
  {
    "ID": 446,
    "PlaceName": "Ethiopia",
    "GeonamesURL": "https://www.geonames.org/337996/federal-democratic-republic-of-ethiopia.html",
    "Description": "",
    "AlternateSpellings": ""
  },
  {
    "ID": 447,
    "PlaceName": "Wimpole Street, London W1.",
    "GeonamesURL": "http://www.geonames.org/6545170/marylebone.html",
    "Description": "John Calder's address in the 1960s.",
    "AlternateSpellings": ""
  },
  {
    "ID": 448,
    "PlaceName": "Keswick",
    "GeonamesURL": "http://www.geonames.org/2645756/keswick.html",
    "Description": "Town in Lake District, North West England.",
    "AlternateSpellings": ""
  },
  {
    "ID": 449,
    "PlaceName": "Shankill",
    "GeonamesURL": "http://www.geonames.org/2961523/shankill.html",
    "Description": "Suburb, southeast of Dublin, on Dublin Bay between Dalkey and Bray.",
    "AlternateSpellings": ""
  },
  {
    "ID": 450,
    "PlaceName": "Boulevard Arago",
    "GeonamesURL": "http://www.geonames.org/6545263/montparnasse.html",
    "Description": "Street that extends from Avenue Denfert-Rochereau to Avenue des Gobelins, Paris 13.",
    "AlternateSpellings": "Bld. Arago"
  },
  {
    "ID": 451,
    "PlaceName": "Rue le Sueur",
    "GeonamesURL": "http://www.geonames.org/2988394/paris-16-passy.html",
    "Description": "Street that extends from Avenue Foch to Rue Duret, Paris 16.",
    "AlternateSpellings": ""
  },
  {
    "ID": 452,
    "PlaceName": "Edgar Quinet",
    "GeonamesURL": "https://www.geonames.org/9176556/edgar-quinet.html",
    "Description": "Street that extends from Boulevard Raspail to Rue du Dopart, Paris 14, and the Metro station at the intersection with Rue de la Gaoto.",
    "AlternateSpellings": ""
  },
  {
    "ID": 453,
    "PlaceName": "Boulevard Raspail",
    "GeonamesURL": "http://www.geonames.org/2997000/paris-06-luxembourg.html",
    "Description": "Street that extends from Rue de Bac to Avenue Denfert-Rochereau, Paris 7 and 14.",
    "AlternateSpellings": ""
  },
  {
    "ID": 454,
    "PlaceName": "Knightsbridge",
    "GeonamesURL": "https://www.geonames.org/6690580/knightsbridge.html",
    "Description": "Affluent region of London, on the south border of Hyde Park.",
    "AlternateSpellings": ""
  },
  {
    "ID": 455,
    "PlaceName": "Ile de St.-Louis",
    "GeonamesURL": "http://www.geonames.org/9843562/paris-09-ancien-quartier-ile-saint-louis.html",
    "Description": "Island in the Seine, east of Notre Dame Cathedral, Paris 4.",
    "AlternateSpellings": "ole Saint-Louis\";"
  },
  {
    "ID": 456,
    "PlaceName": "Cork Street",
    "GeonamesURL": "http://www.geonames.org/2642878/mayfair.html",
    "Description": "London W1, Mayfair, Borough of Westminster.",
    "AlternateSpellings": ""
  },
  {
    "ID": 457,
    "PlaceName": "Chiswick",
    "GeonamesURL": "http://www.geonames.org/2653121/chiswick.html",
    "Description": "London W4, Borough of Hounslow.",
    "AlternateSpellings": ""
  },
  {
    "ID": 458,
    "PlaceName": "Bournemouth",
    "GeonamesURL": "http://www.geonames.org/2655095/bournemouth.html",
    "Description": "City in Dorset, on the English Channel, southern England.",
    "AlternateSpellings": ""
  },
  {
    "ID": 459,
    "PlaceName": "Cagnes-sur-Mer",
    "GeonamesURL": "http://www.geonames.org/3029227/cagnes-sur-mer.html",
    "Description": "Town on the French Riviera, Provence-Alpes-Cote d'Azur, Departement: Alpes-Maritimes.",
    "AlternateSpellings": ""
  },
  {
    "ID": 460,
    "PlaceName": "Sheffield",
    "GeonamesURL": "http://www.geonames.org/2638077/sheffield.html",
    "Description": "City in South Yorkshire.",
    "AlternateSpellings": ""
  },
  {
    "ID": 461,
    "PlaceName": "",
    "GeonamesURL": "",
    "Description": "",
    "AlternateSpellings": ""
  },
  {
    "ID": 462,
    "PlaceName": "Crown Inn, Chiddingfold",
    "GeonamesURL": "http://www.geonames.org/2653183/chiddingfold.html",
    "Description": "Inn and town in the Waverly district of Surrey, southwest of London.",
    "AlternateSpellings": "Chittingfold"
  },
  {
    "ID": 463,
    "PlaceName": "",
    "GeonamesURL": "",
    "Description": "",
    "AlternateSpellings": ""
  },
  {
    "ID": 464,
    "PlaceName": "Green Park",
    "GeonamesURL": "http://www.geonames.org/7303425/green-park.html",
    "Description": "London SW1, park in Westminster.",
    "AlternateSpellings": ""
  },
  {
    "ID": 465,
    "PlaceName": "Duncan Terrace",
    "GeonamesURL": "http://www.geonames.org/2646003/islington.html",
    "Description": "London N1, Barbara Bray's temporary address in May 1962.",
    "AlternateSpellings": ""
  },
  {
    "ID": 466,
    "PlaceName": "Bog of Allen",
    "GeonamesURL": "http://www.geonames.org/2963435/kildare.html",
    "Description": "Large raised bog in the center of Ireland between the rivers Liffey and Shannon; stretches across Offaly, Meath, Kildare, Laois, and Westmeath counties.",
    "AlternateSpellings": ""
  },
  {
    "ID": 467,
    "PlaceName": "Quarter of the Star, Etoile, otoile",
    "GeonamesURL": "http://www.geonames.org/6269534/place-de-l-etoile.html",
    "Description": "Refers to the streets that radiate from the Place Victor Hugo, Paris 16. Named \"Place Charles-de-Gaulle\" in 1970, but still known as \"Place de L'otoile.",
    "AlternateSpellings": "oQuartier de l'otoileo; \"Quarter of the Star\"; \"Etoile\"; \"Place Charles-de-Gaulle\"; \"Place de L'otoile"
  },
  {
    "ID": 468,
    "PlaceName": "",
    "GeonamesURL": "",
    "Description": "",
    "AlternateSpellings": ""
  },
  {
    "ID": 469,
    "PlaceName": "Andrews Farm",
    "GeonamesURL": "http://www.geonames.org/2643626/long-sutton.html",
    "Description": "Long Sutton near Basingstoke, Hampshire, South England. Country home of George Devine and Jocelyn Herbert.",
    "AlternateSpellings": ""
  },
  {
    "ID": 470,
    "PlaceName": "The Round Pond",
    "GeonamesURL": "http://www.geonames.org/10376996/round-pond.html",
    "Description": "London SW10, Kensington Garden; a site that figures in Beckett's novel Murphy.",
    "AlternateSpellings": ""
  },
  {
    "ID": 471,
    "PlaceName": "Kensington",
    "GeonamesURL": "http://www.geonames.org/2645801/kensington.html",
    "Description": "London SW10; site of Kensington Garden.",
    "AlternateSpellings": ""
  },
  {
    "ID": 472,
    "PlaceName": "Tours",
    "GeonamesURL": "http://www.geonames.org/2972191/tours.html",
    "Description": "City in the center of the Loire Valley. Samuel Beckett departed on a bicycle journey from Tours in Summer 1926.",
    "AlternateSpellings": ""
  },
  {
    "ID": 473,
    "PlaceName": "Hungary",
    "GeonamesURL": "http://www.geonames.org/719819/hungary.html",
    "Description": "",
    "AlternateSpellings": ""
  },
  {
    "ID": 474,
    "PlaceName": "Provence",
    "GeonamesURL": "http://www.geonames.org/2985244/provence-alpes-cote-d-azur.html",
    "Description": "Southeastern province in France, bordered on the west by the Rhone River, on the east by Italy, on the south by the Mediterranean Sea. Synonymous with current Provence-Alpes-Cote d'Azur administrative region.",
    "AlternateSpellings": ""
  },
  {
    "ID": 475,
    "PlaceName": "",
    "GeonamesURL": "",
    "Description": "",
    "AlternateSpellings": ""
  },
  {
    "ID": 476,
    "PlaceName": "",
    "GeonamesURL": "",
    "Description": "",
    "AlternateSpellings": ""
  },
  {
    "ID": 477,
    "PlaceName": "Rue de Rennes",
    "GeonamesURL": "",
    "Description": "Street running from the Boulevard du Montparnasse to the Boulevard Saint-Germain, Paris 6.",
    "AlternateSpellings": ""
  },
  {
    "ID": 478,
    "PlaceName": "Rue de la Bocherie",
    "GeonamesURL": "http://www.geonames.org/2988623/paris-05-pantheon.html",
    "Description": "Location of the Librarie Mistral (now Shakespeare and Company); a short street between the Rue Saint-Julien le Pauvre and the Place du Petit Pont, Paris 5.",
    "AlternateSpellings": "Rue de la Bucherie"
  },
  {
    "ID": 479,
    "PlaceName": "Versailles",
    "GeonamesURL": "http://www.geonames.org/2969679/versailles.html",
    "Description": "Town southwest of Paris; site of the Choteau de Versailles.",
    "AlternateSpellings": ""
  },
  {
    "ID": 480,
    "PlaceName": "Monmouth",
    "GeonamesURL": "https://www.geonames.org/2642313/monmouth.html",
    "Description": "County town of Monmouthshire, Wales, near the border with England.",
    "AlternateSpellings": ""
  },
  {
    "ID": 481,
    "PlaceName": "Phoenix Park",
    "GeonamesURL": "http://www.geonames.org/2962053/phoenix-park.html",
    "Description": "Urban park in Dublin 8, west of the city center.",
    "AlternateSpellings": ""
  },
  {
    "ID": 482,
    "PlaceName": "59 Rue de Grenelle",
    "GeonamesURL": "http://www.geonames.org/2988760/paris-07-palais-bourbon.html",
    "Description": "Paris 7; 1963 home of Barbara and Nikos Ghika, daughter ofoMary Hutchinson.",
    "AlternateSpellings": ""
  },
  {
    "ID": 483,
    "PlaceName": "New Square",
    "GeonamesURL": "http://www.geonames.org/7302219/trinity-college.html",
    "Description": "Housing at Trinity College Dublin, just behind Library Square on the campus. Samuel Beckett lived at 39 New Square.",
    "AlternateSpellings": ""
  },
  {
    "ID": 484,
    "PlaceName": "Prague",
    "GeonamesURL": "http://www.geonames.org/3067696/prague.html",
    "Description": "Capital city of the Czech Republic.",
    "AlternateSpellings": ""
  },
  {
    "ID": 485,
    "PlaceName": "",
    "GeonamesURL": "",
    "Description": "",
    "AlternateSpellings": ""
  },
  {
    "ID": 486,
    "PlaceName": "5 Rue Loon Delagrange",
    "GeonamesURL": "http://www.geonames.org/2970479/paris-15-vaugirard.html",
    "Description": "Paris 15. Edward Beckett's address in Paris in 1964; he lived with Jean Martin's mother.",
    "AlternateSpellings": "Rue Leon Delagrante"
  },
  {
    "ID": 487,
    "PlaceName": "Covent Gardens",
    "GeonamesURL": "http://www.geonames.org/2652222/covent-garden.html",
    "Description": "London WC2. In June 1964, there was a rehearsal space for the Aldwych Theatre reprise of Endgame.",
    "AlternateSpellings": ""
  },
  {
    "ID": 488,
    "PlaceName": "Manchester Square",
    "GeonamesURL": "http://www.geonames.org/6545170/marylebone.html",
    "Description": "Square in Marylebone close to Oxford Street, London W1.",
    "AlternateSpellings": "Square Manchester\","
  },
  {
    "ID": 489,
    "PlaceName": "Montague Square",
    "GeonamesURL": "http://www.geonames.org/6545170/marylebone.html",
    "Description": "Square in Marylebone, London W1.",
    "AlternateSpellings": ""
  },
  {
    "ID": 490,
    "PlaceName": "Montauk",
    "GeonamesURL": "http://www.geonames.org/5127321/montauk.html",
    "Description": "Village on east end of Long Island, NY.",
    "AlternateSpellings": ""
  },
  {
    "ID": 491,
    "PlaceName": "Ithaca",
    "GeonamesURL": "http://www.geonames.org/5122432/ithaca.html",
    "Description": "City in central New York state.",
    "AlternateSpellings": ""
  },
  {
    "ID": 492,
    "PlaceName": "Helsinki",
    "GeonamesURL": "http://www.geonames.org/658225/helsinki.html",
    "Description": "Capital of Finland.",
    "AlternateSpellings": ""
  },
  {
    "ID": 493,
    "PlaceName": "16 bis Rue Lauriston",
    "GeonamesURL": "http://www.geonames.org/2988394/paris-16-passy.html",
    "Description": "Paris, 16. Here, a private showing of Beckett's Film, 26 March 1965.",
    "AlternateSpellings": ""
  },
  {
    "ID": 494,
    "PlaceName": "Birmingham",
    "GeonamesURL": "http://www.geonames.org/2655603/birmingham.html",
    "Description": "Major city in the West Midlands, England.",
    "AlternateSpellings": ""
  },
  {
    "ID": 495,
    "PlaceName": "Bucharest",
    "GeonamesURL": "http://www.geonames.org/683506/bucharest.html",
    "Description": "Capital of Romania.",
    "AlternateSpellings": ""
  },
  {
    "ID": 496,
    "PlaceName": "Turin",
    "GeonamesURL": "http://www.geonames.org/3165524/turin.html",
    "Description": "City in the Piedmont Region, Northern Italy.",
    "AlternateSpellings": ""
  },
  {
    "ID": 497,
    "PlaceName": "Courmayeur",
    "GeonamesURL": "http://www.geonames.org/3177872/courmayeur.html",
    "Description": "City in the Aosta Valley, ski resort, northwestern Italy.",
    "AlternateSpellings": ""
  },
  {
    "ID": 498,
    "PlaceName": "Berlin East",
    "GeonamesURL": "http://www.geonames.org/6944057/checkpoint-charlie.html",
    "Description": "The Berlin Wall divided East and West Berlin from 1961 to 1989.",
    "AlternateSpellings": ""
  },
  {
    "ID": 499,
    "PlaceName": "Italian Alps",
    "GeonamesURL": "http://www.geonames.org/3171241/alpi-pennine.html",
    "Description": "Spanning six regions in Northern Italy: Aosta Valley, Piedmont, Lombardy, Veneto, Trentino, Alto Adige and Friuli Venezia Giulia.",
    "AlternateSpellings": ""
  },
  {
    "ID": 500,
    "PlaceName": "Tunis",
    "GeonamesURL": "http://www.geonames.org/2464470/tunis.html",
    "Description": "Capital of Tunisia.",
    "AlternateSpellings": ""
  },
  {
    "ID": 501,
    "PlaceName": "Aosta",
    "GeonamesURL": "http://www.geonames.org/3182997/aosta.html",
    "Description": "Principal city of the Aosta Valley, northwestern Italy. Close to borders of France and Switzerland.",
    "AlternateSpellings": ""
  },
  {
    "ID": 502,
    "PlaceName": "Valloe Blanche",
    "GeonamesURL": "http://www.geonames.org/3177383/entreves.html",
    "Description": "Off-Piste Ski Route in Courmayeur, northwest Italy; a ski resort in the Aosta Valley.",
    "AlternateSpellings": ""
  },
  {
    "ID": 503,
    "PlaceName": "Soho",
    "GeonamesURL": "http://www.geonames.org/6545173/soho.html",
    "Description": "West London, Wesminster, W1.",
    "AlternateSpellings": ""
  },
  {
    "ID": 504,
    "PlaceName": "15 Rue de Dragon",
    "GeonamesURL": "http://www.geonames.org/2997000/paris-06-luxembourg.html",
    "Description": "Paris 6; address of Marcel Mihalovici and Monique Haas, 1965.",
    "AlternateSpellings": ""
  },
  {
    "ID": 505,
    "PlaceName": "80 University Place",
    "GeonamesURL": "http://www.geonames.org/5119418/greenwich-village.html",
    "Description": "New York; address of Grove Press in 1965.",
    "AlternateSpellings": ""
  },
  {
    "ID": 506,
    "PlaceName": "San Rafael",
    "GeonamesURL": "http://www.geonames.org/2977246/saint-raphael.html",
    "Description": "Southeastern France, resort town on the Cote d'Azur.",
    "AlternateSpellings": "Saint-Raphaol"
  },
  {
    "ID": 507,
    "PlaceName": "Hyderabad",
    "GeonamesURL": "http://www.geonames.org/1269843/hyderabad.html",
    "Description": "India, capital of southern India's Telangana state.",
    "AlternateSpellings": ""
  },
  {
    "ID": 508,
    "PlaceName": "4 Rue de l'Universito",
    "GeonamesURL": "http://www.geonames.org/2988760/paris-07-palais-bourbon.html",
    "Description": "Paris 7; address of Robert Pinget, 1953-1965.",
    "AlternateSpellings": "Rue de l'Universite"
  },
  {
    "ID": 509,
    "PlaceName": "Naples",
    "GeonamesURL": "http://www.geonames.org/3172394/naples.html",
    "Description": "City in Southwest Italy, Campania Region.",
    "AlternateSpellings": ""
  },
  {
    "ID": 510,
    "PlaceName": "Milan",
    "GeonamesURL": "http://www.geonames.org/3173435/milan.html",
    "Description": "City in Northern Italy, Lombardy Region.",
    "AlternateSpellings": ""
  },
  {
    "ID": 511,
    "PlaceName": "LoArioge",
    "GeonamesURL": "https://www.geonames.org/3036965/departement-de-l-ariege.html",
    "Description": "French dopartement in the Pyrenees.",
    "AlternateSpellings": "L'Ariege"
  },
  {
    "ID": 512,
    "PlaceName": "Westland Row",
    "GeonamesURL": "http://www.geonames.org/8642988/westland-row.html",
    "Description": "Street just north of the Trinity College Dublin campus, where Perse Street Stationowas located.",
    "AlternateSpellings": ""
  },
  {
    "ID": 513,
    "PlaceName": "Collinstown, Dublin",
    "GeonamesURL": "http://www.geonames.org/2965250/collinstown.html",
    "Description": "Site of the Dublin airport.",
    "AlternateSpellings": ""
  },
  {
    "ID": 514,
    "PlaceName": "Ballyogan Road",
    "GeonamesURL": "http://www.geonames.org/11611093/ballyogan.html",
    "Description": "Co. Dublin; Dun Laoghaire-Rathdown.",
    "AlternateSpellings": ""
  },
  {
    "ID": 515,
    "PlaceName": "Cooldrinagh",
    "GeonamesURL": "http://www.geonames.org/3315280/foxrock.html",
    "Description": "Beckett family home, Foxrock, Co. Dublin.",
    "AlternateSpellings": ""
  },
  {
    "ID": 517,
    "PlaceName": "New Place",
    "GeonamesURL": "http://www.geonames.org/3315280/foxrock.html",
    "Description": "May Beckett's home in Foxrock, Co. Dublin, where she moved after selling the family home, Cooldrinagh, in 1939.",
    "AlternateSpellings": ""
  },
  {
    "ID": 518,
    "PlaceName": "Twickenham",
    "GeonamesURL": "http://www.geonames.org/2635308/twickenham.html",
    "Description": "London suburb, site of Twickenham rugby stadium.",
    "AlternateSpellings": ""
  },
  {
    "ID": 519,
    "PlaceName": "Princeton",
    "GeonamesURL": "http://www.geonames.org/5102922/princeton.html",
    "Description": "City in New Jersey, site of Princeton University.",
    "AlternateSpellings": ""
  },
  {
    "ID": 520,
    "PlaceName": "Godalming",
    "GeonamesURL": "http://www.geonames.org/2648372/godalming.html",
    "Description": "A historic market town, center of the Borough of Waverley, Surrey, England.",
    "AlternateSpellings": ""
  },
  {
    "ID": 521,
    "PlaceName": "Jerusalem",
    "GeonamesURL": "http://www.geonames.org/281184/jerusalem.html",
    "Description": "Capital of Israel.",
    "AlternateSpellings": ""
  },
  {
    "ID": 522,
    "PlaceName": "Gray's Inn Road",
    "GeonamesURL": "http://www.geonames.org/6690589/king-s-cross.html",
    "Description": "Street running from Holborn to King's Cross Station, Central London.",
    "AlternateSpellings": ""
  },
  {
    "ID": 523,
    "PlaceName": "L.B.S.",
    "GeonamesURL": "http://www.geonames.org/2964574/dublin.html",
    "Description": "Lower Baggot Street, Dublin. The section of Baggot Street from center city to the Dodder River where Ethna MacCarthy and A. J. Leventhal lived in Dublin.",
    "AlternateSpellings": ""
  },
  {
    "ID": 524,
    "PlaceName": "121 Brighton Road, Purley, Surrey, England",
    "GeonamesURL": "http://www.geonames.org/2639842/purley.html",
    "Description": "Barbara Bray's address in 1959.",
    "AlternateSpellings": ""
  },
  {
    "ID": 525,
    "PlaceName": "Jouarre",
    "GeonamesURL": "http://www.geonames.org/3012236/jouarre.html",
    "Description": "Commune in the Seine-et-Marne, ole-de-France region.",
    "AlternateSpellings": ""
  },
  {
    "ID": 526,
    "PlaceName": "Australia",
    "GeonamesURL": "http://www.geonames.org/2077456/commonwealth-of-australia.html",
    "Description": "",
    "AlternateSpellings": ""
  },
  {
    "ID": 527,
    "PlaceName": "Villiers-sur-Morin",
    "GeonamesURL": "http://www.geonames.org/2968140/villiers-sur-morin.html",
    "Description": "Commune in the Seine-et-Marne, ole-de-France.",
    "AlternateSpellings": ""
  },
  {
    "ID": 528,
    "PlaceName": "35 Lower Baggot Street, Dublin",
    "GeonamesURL": "http://www.geonames.org/2964574/dublin.html",
    "Description": "Address of A.J. Leventhal in 1959.",
    "AlternateSpellings": ""
  },
  {
    "ID": 529,
    "PlaceName": "14 Chichester Terrace, Brighton, Sussex, England",
    "GeonamesURL": "http://www.geonames.org/2654710/brighton.html",
    "Description": "Address of Jake Schwartz in 1959.",
    "AlternateSpellings": ""
  },
  {
    "ID": 530,
    "PlaceName": "13 King Street, London WC2",
    "GeonamesURL": "http://www.geonames.org/2647567/hammersmith.html",
    "Description": "Address of Curtis Brown 1957-1972.",
    "AlternateSpellings": ""
  },
  {
    "ID": 531,
    "PlaceName": "Brodzinskiego 19, Warsaw 32",
    "GeonamesURL": "http://www.geonames.org/6695624/warszawa.html",
    "Description": "Address of Julian Rokozinski in 1959.",
    "AlternateSpellings": ""
  },
  {
    "ID": 532,
    "PlaceName": "Le Midi",
    "GeonamesURL": "https://www.geonames.org/2993966/midi.html",
    "Description": "Southern France, colloquially known as le Midi, is a defined geographical area of the regions of France that border the Atlantic.",
    "AlternateSpellings": ""
  },
  {
    "ID": 533,
    "PlaceName": "64 University Place, New York",
    "GeonamesURL": "http://www.geonames.org/5119418/greenwich-village.html",
    "Description": "Address of Grove Press, 1959- August 1964.",
    "AlternateSpellings": "64 Univ. Place, N.Y."
  },
  {
    "ID": 534,
    "PlaceName": "Pine Forest",
    "GeonamesURL": "http://www.geonames.org/2964573/baile-atha-cliath.html",
    "Description": "Co. Dublin.",
    "AlternateSpellings": ""
  },
  {
    "ID": 535,
    "PlaceName": "Military Road",
    "GeonamesURL": "http://www.geonames.org/2964573/baile-atha-cliath.html",
    "Description": "Old Military Road extends from the Dublin Panoramic View in County Dublin, through the Wicklow Mountains (Sally Gap) to Laragh, County Wicklow.",
    "AlternateSpellings": ""
  },
  {
    "ID": 537,
    "PlaceName": "Annamoe",
    "GeonamesURL": "http://www.geonames.org/2966964/annamoe.html",
    "Description": "Village on the Avonmore River, Co. Wicklow; 20 miles south of Dublin.",
    "AlternateSpellings": ""
  },
  {
    "ID": 538,
    "PlaceName": "Woking",
    "GeonamesURL": "http://www.geonames.org/2633709/woking.html",
    "Description": "Town in northwest Surrey, England.",
    "AlternateSpellings": ""
  },
  {
    "ID": 539,
    "PlaceName": "Lioge",
    "GeonamesURL": "http://www.geonames.org/2792413/liege.html",
    "Description": "Belgian city; in Wallonia.",
    "AlternateSpellings": ""
  },
  {
    "ID": 540,
    "PlaceName": "Cliffs of Moher",
    "GeonamesURL": "http://www.geonames.org/2962572/cliffs-of-moher.html",
    "Description": "Southwestern edge of the Burren Region, County Clare, Ireland.",
    "AlternateSpellings": ""
  },
  {
    "ID": 541,
    "PlaceName": "New Cavendish Street",
    "GeonamesURL": "http://www.geonames.org/6545170/marylebone.html",
    "Description": "Street in London, Marylebone.",
    "AlternateSpellings": ""
  },
  {
    "ID": 542,
    "PlaceName": "St. Tropez",
    "GeonamesURL": "http://www.geonames.org/2976742/saint-tropez.html",
    "Description": "Coastal town on the French Riviera, in Provence-Alpes-Cote d'Azur, southeastern France.",
    "AlternateSpellings": ""
  },
  {
    "ID": 543,
    "PlaceName": "Rue Racine",
    "GeonamesURL": "http://www.geonames.org/6618612/paris-06.html",
    "Description": "Street that extends from the Boulevard Saint-Michael to the Place de l'Odoon, Paris 6.",
    "AlternateSpellings": ""
  },
  {
    "ID": 544,
    "PlaceName": "Rue de la Gaieto",
    "GeonamesURL": "http://www.geonames.org/6618620/paris-14.html",
    "Description": "Street that extends from Avenue du Maine to Boulevard Edgar Quinet, Paris 14.",
    "AlternateSpellings": "Gaoeto\"; \"Gaiete"
  },
  {
    "ID": 545,
    "PlaceName": "1 A Frognal Mansions, 97 Frognal, London NW 3",
    "GeonamesURL": "http://www.geonames.org/3333138/camden.html",
    "Description": "Address of John Beckett in 1959.",
    "AlternateSpellings": ""
  },
  {
    "ID": 547,
    "PlaceName": "Dreux",
    "GeonamesURL": "http://www.geonames.org/3020809/arrondissement-de-dreux.html",
    "Description": "Commune west of Paris, Eure-et-Loire, northern France.",
    "AlternateSpellings": ""
  },
  {
    "ID": 548,
    "PlaceName": "Germany",
    "GeonamesURL": "http://www.geonames.org/2921044/federal-republic-of-germany.html",
    "Description": "",
    "AlternateSpellings": ""
  },
  {
    "ID": 549,
    "PlaceName": "795 Broadway, New York",
    "GeonamesURL": "http://www.geonames.org/7177512/noho-historic-district.html",
    "Description": "Address of Grove Press in 1957.",
    "AlternateSpellings": ""
  },
  {
    "ID": 550,
    "PlaceName": "2 RUE ANTOINE-DUBOIS PARIS 6",
    "GeonamesURL": "http://www.geonames.org/6618612/paris-06.html",
    "Description": "Address of Deryk Mendel 1957-1961.",
    "AlternateSpellings": ""
  },
  {
    "ID": 551,
    "PlaceName": "",
    "GeonamesURL": "",
    "Description": "",
    "AlternateSpellings": ""
  },
  {
    "ID": 552,
    "PlaceName": "Jardin des Plantes",
    "GeonamesURL": "http://www.geonames.org/6452789/jardin-des-plantes.html",
    "Description": "Main botanical Garden in France, Paris 5.",
    "AlternateSpellings": ""
  },
  {
    "ID": 553,
    "PlaceName": "234 N. 44th Street New York 36",
    "GeonamesURL": "http://www.geonames.org/6930480/midtown-manhattan.html",
    "Description": "Address of Michael Myerberg in 1957.",
    "AlternateSpellings": ""
  },
  {
    "ID": 554,
    "PlaceName": "Bayreuth",
    "GeonamesURL": "http://www.geonames.org/2951825/bayreuth.html",
    "Description": "Town on the Red Main river, northern Bavaria, Germany. Site of the Bayreuth Festival, home of Richard Wagner.",
    "AlternateSpellings": ""
  },
  {
    "ID": 555,
    "PlaceName": "Erquy",
    "GeonamesURL": "http://www.geonames.org/3019875/erquy.html",
    "Description": "Commune in the Cotes-d'Armor, Brittany, in northwestern France.",
    "AlternateSpellings": ""
  },
  {
    "ID": 556,
    "PlaceName": "Le Vesinet",
    "GeonamesURL": "http://www.geonames.org/6455417/le-vesinet.html",
    "Description": "Commune in the Yvelines, ole-de-France, north-central France.",
    "AlternateSpellings": ""
  },
  {
    "ID": 557,
    "PlaceName": "7 Rue Bernard-Palissy, Paris 6",
    "GeonamesURL": "http://www.geonames.org/6618612/paris-06.html",
    "Description": "Address of Editions de Minuit address.",
    "AlternateSpellings": ""
  },
  {
    "ID": 558,
    "PlaceName": "8 Rue de Nesle Paris 6",
    "GeonamesURL": "http://www.geonames.org/6618612/paris-06.html",
    "Description": "Address of Olympia Press in 1957.",
    "AlternateSpellings": ""
  },
  {
    "ID": 559,
    "PlaceName": "Ste Aulde",
    "GeonamesURL": "http://www.geonames.org/6443819/sainte-aulde.html",
    "Description": "Commune in Seine-et-Marne, ole-de-France, north-central France.",
    "AlternateSpellings": "Sainte Aulde\", \"Saint Aulde\"; \"Ste. Aulde\"; \"Aulde"
  },
  {
    "ID": 560,
    "PlaceName": "Boulevard des Italiens",
    "GeonamesURL": "http://www.geonames.org/2989487/paris-09-opera; html http://www.geonames.org/6618608/paris-02.html",
    "Description": "Boulevard that extends from Rue de la Chausoe D'Antin to Boulevard Haussman, Paris 2 and 9.",
    "AlternateSpellings": "Boulevard des Italiens"
  },
  {
    "ID": 561,
    "PlaceName": "Serrano 76, Madrid",
    "GeonamesURL": "http://www.geonames.org/11847509/calle-de-serrano.html",
    "Description": "Address of Trino Martinez in 1957.",
    "AlternateSpellings": "Calle de Serrano"
  },
  {
    "ID": 563,
    "PlaceName": "Brittany",
    "GeonamesURL": "http://www.geonames.org/3030293/bretagne.html",
    "Description": "Region of northwestern France, a hilly peninsula extending into the Atlantic Ocean.",
    "AlternateSpellings": ""
  },
  {
    "ID": 564,
    "PlaceName": "Loire Valley",
    "GeonamesURL": "http://www.geonames.org/2997862/val-de-loire.html",
    "Description": "Central France.",
    "AlternateSpellings": ""
  },
  {
    "ID": 565,
    "PlaceName": "Detroit",
    "GeonamesURL": "http://www.geonames.org/4990729/detroit.html",
    "Description": "Largest city in Michigan.",
    "AlternateSpellings": ""
  },
  {
    "ID": 566,
    "PlaceName": "St. Helena",
    "GeonamesURL": "http://www.geonames.org/3370751/saint-helena-ascension-and-tristan-da-cunha.html",
    "Description": "Tropical Island in South Atlantic Ocean, British Overseas Territory.",
    "AlternateSpellings": "Saint Helena"
  },
  {
    "ID": 567,
    "PlaceName": "42 Rue de Seine, Paris 6",
    "GeonamesURL": "http://www.geonames.org/6618612/paris-06.html",
    "Description": "Address of Librairie Anglaise in 1957.",
    "AlternateSpellings": ""
  },
  {
    "ID": 568,
    "PlaceName": "Douvaine",
    "GeonamesURL": "https://www.geonames.org/6442941/douvaine.html",
    "Description": "Commune in Haute-Savoie, Auvergne-Rhone-Alpes, southeastern France.",
    "AlternateSpellings": ""
  },
  {
    "ID": 569,
    "PlaceName": "Foxrock Station",
    "GeonamesURL": "http://www.geonames.org/3315280/foxrock.html",
    "Description": "A station on the \"slow and easy\" train route from Dublin to Bray, Co. Dublin; one of the platforms has a pathway to the Leopardstown Racecourse.",
    "AlternateSpellings": ""
  },
  {
    "ID": 570,
    "PlaceName": "New Zealand",
    "GeonamesURL": "http://www.geonames.org/2186224/new-zealand.html",
    "Description": "",
    "AlternateSpellings": ""
  },
  {
    "ID": 571,
    "PlaceName": "170 Boulevard Saint-Germain, Paris 6",
    "GeonamesURL": "http://www.geonames.org/6944426/boulevard-st-germain.html",
    "Description": "Address of Librairie La Hune until 2012.",
    "AlternateSpellings": ""
  },
  {
    "ID": 572,
    "PlaceName": "5 Place Pasteur, Tunis",
    "GeonamesURL": "http://www.geonames.org/11904613/taieb-el-m-hiri.html",
    "Description": "Address of Mme. Faure-Dore, in 1958.",
    "AlternateSpellings": ""
  },
  {
    "ID": 573,
    "PlaceName": "Brussels",
    "GeonamesURL": "http://www.geonames.org/2800867/bruxelles-capitale.html",
    "Description": "Capital of Belgium.",
    "AlternateSpellings": ""
  },
  {
    "ID": 574,
    "PlaceName": "Wexford",
    "GeonamesURL": "http://www.geonames.org/2960963/loch-garman.html",
    "Description": "City in County Wexford, southeastern Ireland; on the coast of the St. George's Channel.",
    "AlternateSpellings": ""
  },
  {
    "ID": 575,
    "PlaceName": "Sologne",
    "GeonamesURL": "http://www.geonames.org/2974334/sologne.html",
    "Description": "Region of north central France.",
    "AlternateSpellings": ""
  },
  {
    "ID": 576,
    "PlaceName": "Belfast",
    "GeonamesURL": "http://www.geonames.org/3333223/city-of-belfast.html",
    "Description": "Capital of Northern Ireland.",
    "AlternateSpellings": ""
  },
  {
    "ID": 577,
    "PlaceName": "Heidelberg",
    "GeonamesURL": "http://www.geonames.org/2907911/heidelberg.html",
    "Description": "Town on the Neckar River, southwestern Germany; location of the University of Heidelberg.",
    "AlternateSpellings": ""
  },
  {
    "ID": 578,
    "PlaceName": "Seine River",
    "GeonamesURL": "http://www.geonames.org/2969324/vieille-seine.html",
    "Description": "River that flows for 777 kilometers within the Paris Basin, France.",
    "AlternateSpellings": ""
  },
  {
    "ID": 579,
    "PlaceName": "Kerry",
    "GeonamesURL": "http://www.geonames.org/2963517/ciarrai.html",
    "Description": "Co. Kerry, Ireland; the peninsular southwestern region of Ireland on the Pacific coast.",
    "AlternateSpellings": ""
  },
  {
    "ID": 580,
    "PlaceName": "West Cromwell Road",
    "GeonamesURL": "http://www.geonames.org/2650549/earls-court.html",
    "Description": "In Kensington and Chelsea, London.",
    "AlternateSpellings": ""
  },
  {
    "ID": 581,
    "PlaceName": "Whitechurch, Co. Dublin",
    "GeonamesURL": "http://www.geonames.org/3315264/whitechurch.html",
    "Description": "Grange House,\" home of James Starkey (also known as Seumas O'Sullivan) and Estella Solomons.",
    "AlternateSpellings": "Grange House"
  },
  {
    "ID": 582,
    "PlaceName": "Roussillon",
    "GeonamesURL": "http://www.geonames.org/2982454/roussillon.html",
    "Description": "Vaucluse, France, where Samuel Beckett and Suzanne stayed in hiding during World War II (1942-1945).",
    "AlternateSpellings": ""
  },
  {
    "ID": 583,
    "PlaceName": "Apt",
    "GeonamesURL": "https://www.geonames.org/3037352/apt.html",
    "Description": "Commune in the Vaucluse, Provence-Alpes-Cote d'Azur, southeastern France.",
    "AlternateSpellings": ""
  },
  {
    "ID": 584,
    "PlaceName": "Gordes",
    "GeonamesURL": "https://www.geonames.org/6451548/gordes.html",
    "Description": "Commune in the Vaucluse, Provence-Alpes-Cote d'Azur, southeastern France.",
    "AlternateSpellings": ""
  },
  {
    "ID": 585,
    "PlaceName": "LaCoste",
    "GeonamesURL": "https://www.geonames.org/6451555/lacoste.html",
    "Description": "Commune in the Vaucluse, Provence-Alpes-Cote d'Azur, southeastern France.",
    "AlternateSpellings": ""
  },
  {
    "ID": 586,
    "PlaceName": "Avignon",
    "GeonamesURL": "https://www.geonames.org/3035681/avignon.html",
    "Description": "Commune on the Rhone River, Provence, France.",
    "AlternateSpellings": ""
  },
  {
    "ID": 587,
    "PlaceName": "Portugal",
    "GeonamesURL": "https://www.geonames.org/2264397/portuguese-republic.html",
    "Description": "",
    "AlternateSpellings": ""
  },
  {
    "ID": 588,
    "PlaceName": "Lehenstrasse 31, Stuttgart, Germany",
    "GeonamesURL": "",
    "Description": "Address of Roland Honsell, Manuspress, Stuttgart, Germany.",
    "AlternateSpellings": ""
  },
  {
    "ID": 589,
    "PlaceName": "Cascais",
    "GeonamesURL": "https://www.geonames.org/2269594/cascais.html",
    "Description": "City on the Portuguese Riviera.",
    "AlternateSpellings": ""
  },
  {
    "ID": 590,
    "PlaceName": "Estoril",
    "GeonamesURL": "https://www.geonames.org/2268436/estoril.html",
    "Description": "Town in the municipality of Cascais, a luxury destination.",
    "AlternateSpellings": ""
  },
  {
    "ID": 591,
    "PlaceName": "Tokyo",
    "GeonamesURL": "https://www.geonames.org/1850147/tokyo.html",
    "Description": "Capital of Japan.",
    "AlternateSpellings": ""
  },
  {
    "ID": 592,
    "PlaceName": "Rhodes",
    "GeonamesURL": "https://www.geonames.org/400665/rhodes.html",
    "Description": "Largest of the Dodecanese islands of Greece, and the group's historical capital.",
    "AlternateSpellings": ""
  },
  {
    "ID": 593,
    "PlaceName": "Lisbon",
    "GeonamesURL": "https://www.geonames.org/2267057/lisbon.html",
    "Description": "Capital of Portugal.",
    "AlternateSpellings": "Lisbonne"
  },
  {
    "ID": 594,
    "PlaceName": "",
    "GeonamesURL": "",
    "Description": "",
    "AlternateSpellings": ""
  },
  {
    "ID": 595,
    "PlaceName": "California",
    "GeonamesURL": "https://www.geonames.org/5332921/california.html",
    "Description": "State in the Pacific region of the US; most populous in the US.",
    "AlternateSpellings": ""
  },
  {
    "ID": 596,
    "PlaceName": "Morehampton Rd",
    "GeonamesURL": "",
    "Description": "Dublin 4. Thomas MacGreevy lived at 49 Morehampton Road 1960-1962.",
    "AlternateSpellings": ""
  },
  {
    "ID": 598,
    "PlaceName": "Normandy",
    "GeonamesURL": "https://www.geonames.org/11071621/normandie.html",
    "Description": "Region in northern France on the English Channel.",
    "AlternateSpellings": ""
  },
  {
    "ID": 599,
    "PlaceName": "Sandomierska 21, Warszawa, Pologne",
    "GeonamesURL": "",
    "Description": "Address of Adam Tarn, in 1966.",
    "AlternateSpellings": ""
  },
  {
    "ID": 600,
    "PlaceName": "Istamgat 95, olvsjo 5, Sweden",
    "GeonamesURL": "",
    "Description": "Address of Lotfi ozkok, in 1967.",
    "AlternateSpellings": "Alvskjo"
  },
  {
    "ID": 601,
    "PlaceName": "Buenos Aires",
    "GeonamesURL": "https://www.geonames.org/3435910/buenos-aires.html",
    "Description": "Capital city of Argentina.",
    "AlternateSpellings": ""
  },
  {
    "ID": 602,
    "PlaceName": "Al. Jerozolimskie 37, Warszawa, Pologne",
    "GeonamesURL": "",
    "Description": "Address of Adam Tarn in 1967.",
    "AlternateSpellings": ""
  },
  {
    "ID": 603,
    "PlaceName": "Sao-Paulo",
    "GeonamesURL": "https://www.geonames.org/3448439/sao-paulo.html",
    "Description": "Financial center of Brazil, one of the world's most populous cities.",
    "AlternateSpellings": "\"Soo-Paulo\"; \"Sao-Paulo\"; \"Sao Paulo"
  },
  {
    "ID": 604,
    "PlaceName": "282 York St., New Haven 11",
    "GeonamesURL": "",
    "Description": "Address of the bookshop of Henry Wenning, in 1963 -1965.",
    "AlternateSpellings": ""
  },
  {
    "ID": 605,
    "PlaceName": "",
    "GeonamesURL": "",
    "Description": "",
    "AlternateSpellings": ""
  },
  {
    "ID": 606,
    "PlaceName": "Guatemala",
    "GeonamesURL": "https://www.geonames.org/3595528/republic-of-guatemala.html",
    "Description": "Central American country south of Mexico.",
    "AlternateSpellings": ""
  },
  {
    "ID": 607,
    "PlaceName": "Denver",
    "GeonamesURL": "https://www.geonames.org/5419384/denver.html",
    "Description": "Capital of Colorado, western United States.",
    "AlternateSpellings": ""
  },
  {
    "ID": 608,
    "PlaceName": "Aylett House, Angel Court, Compton, Surrey",
    "GeonamesURL": "",
    "Description": "Address of Sheila and Donald Page, 1967-1989.",
    "AlternateSpellings": ""
  },
  {
    "ID": 609,
    "PlaceName": "Girton",
    "GeonamesURL": "https://www.geonames.org/2648627/girton.html",
    "Description": "Girton College, University of Cambridge, UK; the first women's college in Cambridge.",
    "AlternateSpellings": ""
  },
  {
    "ID": 610,
    "PlaceName": "Brampton House, Church Street, London W. 4",
    "GeonamesURL": "",
    "Description": "John Beckett's address in 1966.",
    "AlternateSpellings": ""
  },
  {
    "ID": 611,
    "PlaceName": "Langelandsgade 35A, Aarhus, Danmark",
    "GeonamesURL": "",
    "Description": "Address of Christian Ludvigsen, 1966-1973.",
    "AlternateSpellings": "orhus, Danemark\"; \"Aarhus, Denmark"
  },
  {
    "ID": 612,
    "PlaceName": "3 Tyler Road, Hanover, New Hampshire",
    "GeonamesURL": "",
    "Description": "Address of Lawrence Harvey, 1962-1972.",
    "AlternateSpellings": ""
  },
  {
    "ID": 613,
    "PlaceName": "72 Longton Grove, Sydenham, London S.E. 26",
    "GeonamesURL": "",
    "Description": "Address of Paul Joyce in 1966.",
    "AlternateSpellings": ""
  },
  {
    "ID": 614,
    "PlaceName": "Maidstone",
    "GeonamesURL": "https://www.geonames.org/2643179/maidstone.html",
    "Description": "Town in Kent, England, on the River Medway.",
    "AlternateSpellings": ""
  },
  {
    "ID": 615,
    "PlaceName": "Ligurian Coast",
    "GeonamesURL": "https://www.geonames.org/3174725/liguria.html",
    "Description": "Region south along the Mediterranean from Genoa, the Italian Riviera.",
    "AlternateSpellings": ""
  },
  {
    "ID": 616,
    "PlaceName": "Genoa",
    "GeonamesURL": "https://www.geonames.org/3176219/genoa.html",
    "Description": "Port city and capital of the Ligurian region, northwestern Italy.",
    "AlternateSpellings": ""
  },
  {
    "ID": 617,
    "PlaceName": "Alghero",
    "GeonamesURL": "https://www.geonames.org/3183284/alghero.html",
    "Description": "City on the northwestern coast of Sardinia, Italy.",
    "AlternateSpellings": ""
  },
  {
    "ID": 618,
    "PlaceName": "19 Clifden Rd., London E.5",
    "GeonamesURL": "",
    "Description": "Address of Geoffrey Hazard in 1964-1968",
    "AlternateSpellings": ""
  },
  {
    "ID": 619,
    "PlaceName": "55 Av. du Maine, Paris 14",
    "GeonamesURL": "",
    "Description": "Address of Jacoba van Velde in August 1967.",
    "AlternateSpellings": ""
  },
  {
    "ID": 620,
    "PlaceName": "The Guardship, Church St., London W.4",
    "GeonamesURL": "",
    "Description": "Address of John Beckett in 1967.",
    "AlternateSpellings": ""
  },
  {
    "ID": 621,
    "PlaceName": "Baigneux-les-Juifs",
    "GeonamesURL": "",
    "Description": "Address of Ludovic and Agnos Janvier in August 1967.",
    "AlternateSpellings": ""
  },
  {
    "ID": 622,
    "PlaceName": "Tiergarten",
    "GeonamesURL": "https://www.geonames.org/7288057/tiergarten.html",
    "Description": "Large park in central Berlin, Germany",
    "AlternateSpellings": ""
  },
  {
    "ID": 623,
    "PlaceName": "Berlin-Charlottenburg 2, Bismarckstr 110",
    "GeonamesURL": "",
    "Description": "Address of Schiller Theater, Berlin.",
    "AlternateSpellings": "Bismarkstrasse 110"
  },
  {
    "ID": 624,
    "PlaceName": "",
    "GeonamesURL": "",
    "Description": "",
    "AlternateSpellings": ""
  },
  {
    "ID": 625,
    "PlaceName": "Doumer Bridge",
    "GeonamesURL": "https://www.geonames.org/8556323/long-bien-bridge.html",
    "Description": "A cantilever bridge across the Red River that connects Hoan Kiem and Long Bien sections of the city of Hanoi, Vietnam.",
    "AlternateSpellings": "Long Bion Bridge\"; \"c_u long bion"
  },
  {
    "ID": 626,
    "PlaceName": "Sussex",
    "GeonamesURL": "",
    "Description": "County in southeastern England, on the English Channel.",
    "AlternateSpellings": ""
  },
  {
    "ID": 627,
    "PlaceName": "Str. Mindinesti 2, Bucharest",
    "GeonamesURL": "",
    "Description": "Address of David Esrice, Teatral de Comedie, 1967.",
    "AlternateSpellings": "Strasse Mindinesti 2"
  },
  {
    "ID": 628,
    "PlaceName": "",
    "GeonamesURL": "",
    "Description": "",
    "AlternateSpellings": ""
  },
  {
    "ID": 629,
    "PlaceName": "Wannsee",
    "GeonamesURL": "https://www.geonames.org/2814196/wannsee.html",
    "Description": "Westernmost locality in Berlin, with two lakes on the river Havel.",
    "AlternateSpellings": ""
  },
  {
    "ID": 630,
    "PlaceName": "Bellevue Park",
    "GeonamesURL": "https://www.geonames.org/6944092/schloss-bellevue.html",
    "Description": "Friedrichshanener Strasse 38, Berlin, grounds of Bellevue Palace in the Tiergarten district; since 1994 the home of the President of Germany.",
    "AlternateSpellings": ""
  },
  {
    "ID": 631,
    "PlaceName": "Perpignan",
    "GeonamesURL": "https://www.geonames.org/2987914/perpignan.html",
    "Description": "City, Pyronoes-Orientales, southern France, near the Mediterranean coast and the Spanish border; capital of Majorca in the 13th century.",
    "AlternateSpellings": ""
  },
  {
    "ID": 632,
    "PlaceName": "Chelles",
    "GeonamesURL": "https://www.geonames.org/6443604/chelles.html",
    "Description": "Commune in the eastern suburbs of Paris, Seine-et-Marne, ole-de-France.",
    "AlternateSpellings": ""
  },
  {
    "ID": 633,
    "PlaceName": "Gaza Rd. 36, Jerusalem",
    "GeonamesURL": "",
    "Description": "Address of Avigdor Arikha in September 1967.",
    "AlternateSpellings": ""
  },
  {
    "ID": 634,
    "PlaceName": "Chatelet",
    "GeonamesURL": "",
    "Description": "Public Square, right bank, border of Paris 1 and 4; also station of the Paris Motro and of ole-de-France's regional high-speed RER line.",
    "AlternateSpellings": "Chotelet"
  },
  {
    "ID": 635,
    "PlaceName": "264 Rue Saint-Honore, Paris 1",
    "GeonamesURL": "",
    "Description": "Address of Roger Blin in 1957-1981.",
    "AlternateSpellings": ""
  },
  {
    "ID": 636,
    "PlaceName": "Cagliari",
    "GeonamesURL": "https://www.geonames.org/2525473/cagliari.html",
    "Description": "Capital city of the Italian island of Sardinia.",
    "AlternateSpellings": ""
  },
  {
    "ID": 637,
    "PlaceName": "Toulon",
    "GeonamesURL": "https://www.geonames.org/2972328/toulon.html",
    "Description": "Port city in southern France, on the Mediterranean coast.",
    "AlternateSpellings": ""
  },
  {
    "ID": 638,
    "PlaceName": "Salem-Spital",
    "GeonamesURL": "",
    "Description": "Hospital in Bern, Switzerland.",
    "AlternateSpellings": ""
  },
  {
    "ID": 639,
    "PlaceName": "Seward St.",
    "GeonamesURL": "",
    "Description": "71 Seward Street, San Francisco; address of Ruby Cohn in 1965-1972.",
    "AlternateSpellings": ""
  },
  {
    "ID": 640,
    "PlaceName": "Poitiers",
    "GeonamesURL": "https://www.geonames.org/2986495/poitiers.html",
    "Description": "Capital city of the Vienne departement, and of the Poitou, on the Clain river, west-central France.",
    "AlternateSpellings": ""
  },
  {
    "ID": 641,
    "PlaceName": "Ballybrack",
    "GeonamesURL": "https://www.geonames.org/3315281/ballybrack.html",
    "Description": "Residential suburb in Dublin's southside, located in the Don LaoghaireoRathdown, Ireland.",
    "AlternateSpellings": ""
  },
  {
    "ID": 642,
    "PlaceName": "Argenteuil",
    "GeonamesURL": "https://www.geonames.org/3037044/argenteuil.html",
    "Description": "Commune in the northwestern suburbs of Paris.",
    "AlternateSpellings": ""
  },
  {
    "ID": 643,
    "PlaceName": "Norwich",
    "GeonamesURL": "https://www.geonames.org/2641181/norwich.html",
    "Description": "Cathedral city in Norfolk, England.",
    "AlternateSpellings": ""
  },
  {
    "ID": 644,
    "PlaceName": "Norfolk",
    "GeonamesURL": "https://www.geonames.org/2641455/norfolk.html",
    "Description": "A county in East Anglia, England.",
    "AlternateSpellings": ""
  },
  {
    "ID": 645,
    "PlaceName": "Buffalo",
    "GeonamesURL": "https://www.geonames.org/5110629/buffalo.html",
    "Description": "City on the shores of Lake Erie, north western New York, United States.",
    "AlternateSpellings": ""
  },
  {
    "ID": 646,
    "PlaceName": "Florida",
    "GeonamesURL": "https://www.geonames.org/4155751/florida.html",
    "Description": "The southernmost US state, a peninsula with the Atlantic on the eastern coast and the Gulf of Mexico on the western coast.",
    "AlternateSpellings": ""
  },
  {
    "ID": 647,
    "PlaceName": "Cape Town",
    "GeonamesURL": "https://www.geonames.org/3369157/cape-town.html",
    "Description": "Port city on the southwestern coast of South Africa, and its capital.",
    "AlternateSpellings": ""
  },
  {
    "ID": 648,
    "PlaceName": "San Marino",
    "GeonamesURL": "",
    "Description": "A microstate surrounded by north-central Italy; its capital city is also San Marino.",
    "AlternateSpellings": ""
  },
  {
    "ID": 649,
    "PlaceName": "Appian Way",
    "GeonamesURL": "",
    "Description": "A street in Rathmines, County Dublin, running between Leeson Park and Morehampton Road.",
    "AlternateSpellings": ""
  },
  {
    "ID": 650,
    "PlaceName": "Portofino",
    "GeonamesURL": "https://www.geonames.org/3170092/portofino.html",
    "Description": "A fishing village on the Italian Riviera southeast of Genoa.",
    "AlternateSpellings": ""
  },
  {
    "ID": 651,
    "PlaceName": "Rapallo",
    "GeonamesURL": "https://www.geonames.org/3169602/rapallo.html",
    "Description": "Town on the Italian Riviera southeast of Genoa.",
    "AlternateSpellings": ""
  },
  {
    "ID": 652,
    "PlaceName": "",
    "GeonamesURL": "",
    "Description": "",
    "AlternateSpellings": ""
  },
  {
    "ID": 653,
    "PlaceName": "Tobingen",
    "GeonamesURL": "https://www.geonames.org/2820860/tuebingen.html",
    "Description": "City in central Baden-Worttemberg, Germany; location of one of the oldest European universities.",
    "AlternateSpellings": "Tuebingen\"; \"Tubingen"
  },
  {
    "ID": 654,
    "PlaceName": "Italian Riviera",
    "GeonamesURL": "https://www.geonames.org/3170325/italian-riviera.html",
    "Description": "The Liguerian coast, south of Genoa on the Mediterranean.",
    "AlternateSpellings": ""
  },
  {
    "ID": 655,
    "PlaceName": "Rue St. J",
    "GeonamesURL": "",
    "Description": "Street running between the Boulevard de Port-Royale and Rue Galande, Paris 5 and 14.",
    "AlternateSpellings": "Rue Saint-Jacques\"; \"Rue Saint Jacques"
  },
  {
    "ID": 656,
    "PlaceName": "Kiev",
    "GeonamesURL": "https://www.geonames.org/703448/kyiv.html",
    "Description": "Capital city of the Ukraine, north-central Ukraine.",
    "AlternateSpellings": "Kyiv"
  },
  {
    "ID": 657,
    "PlaceName": "38 Fitzjohns Avenue, London N.W. 3",
    "GeonamesURL": "",
    "Description": "Address of Jack MacGowran in 1966.",
    "AlternateSpellings": ""
  },
  {
    "ID": 658,
    "PlaceName": "Funchal",
    "GeonamesURL": "https://www.geonames.org/2267827/funchal.html",
    "Description": "Capital city of Portugal's Madeira archipelago.",
    "AlternateSpellings": ""
  },
  {
    "ID": 659,
    "PlaceName": "Madeira",
    "GeonamesURL": "https://www.geonames.org/2593105/madeira.html",
    "Description": "Archipelago in Portugal.",
    "AlternateSpellings": ""
  },
  {
    "ID": 660,
    "PlaceName": "Wellington Place",
    "GeonamesURL": "",
    "Description": "Street, Ballsbridge, Dublin 4.",
    "AlternateSpellings": ""
  },
  {
    "ID": 661,
    "PlaceName": "Castle Park",
    "GeonamesURL": "",
    "Description": "Neighborhood is southwest Dublin.",
    "AlternateSpellings": ""
  },
  {
    "ID": 662,
    "PlaceName": "Rua do Bom Jesus 16, Funchal, Madere",
    "GeonamesURL": "",
    "Description": "Address of Carlos Jardim in 1969.",
    "AlternateSpellings": "Madeira"
  },
  {
    "ID": 663,
    "PlaceName": "Malta",
    "GeonamesURL": "https://www.geonames.org/2562770/republic-of-malta.html",
    "Description": "An archipelago in the central Mediterranean between Sicily and the North African coast.",
    "AlternateSpellings": ""
  },
  {
    "ID": 664,
    "PlaceName": "Alberta",
    "GeonamesURL": "https://www.geonames.org/5883102/alberta.html",
    "Description": "A province in western Canada.",
    "AlternateSpellings": ""
  },
  {
    "ID": 665,
    "PlaceName": "Glasgow",
    "GeonamesURL": "https://www.geonames.org/2648579/glasgow.html",
    "Description": "Port city on the River Clyde in Scotland's western lowlands.",
    "AlternateSpellings": ""
  },
  {
    "ID": 666,
    "PlaceName": "Menton",
    "GeonamesURL": "https://www.geonames.org/2994497/menton.html",
    "Description": "Town on the French Riviera, southeastern France.",
    "AlternateSpellings": ""
  },
  {
    "ID": 667,
    "PlaceName": "6 Rue Bourbon le Choteau, Paris 6",
    "GeonamesURL": "",
    "Description": "Address of the publisher, Visat, in 1968.",
    "AlternateSpellings": "Rue Bourbon le Chateau"
  },
  {
    "ID": 668,
    "PlaceName": "Roquebrun",
    "GeonamesURL": "https://www.geonames.org/2982880/roquebrun.html",
    "Description": "A commune, Horault, in the Occitanie region in southern France.",
    "AlternateSpellings": ""
  },
  {
    "ID": 669,
    "PlaceName": "Porto Santo",
    "GeonamesURL": "https://www.geonames.org/2264401/ilha-de-porto-santo.html",
    "Description": "Island in Madeira, Portugal.",
    "AlternateSpellings": ""
  },
  {
    "ID": 670,
    "PlaceName": "Skagen",
    "GeonamesURL": "https://www.geonames.org/2613939/skagen.html",
    "Description": "A port town at the north end of Denmarkos Jutland peninsula.",
    "AlternateSpellings": ""
  },
  {
    "ID": 671,
    "PlaceName": "North Jutland",
    "GeonamesURL": "https://www.geonames.org/6418540/north-denmark-region.html",
    "Description": "The region of the north of Denmark.",
    "AlternateSpellings": "Jutland-du-Nord"
  },
  {
    "ID": 672,
    "PlaceName": "Calgary",
    "GeonamesURL": "https://www.geonames.org/5913490/calgary.html",
    "Description": "City in Alberta, Canada.",
    "AlternateSpellings": ""
  },
  {
    "ID": 673,
    "PlaceName": "Atlantic Islands",
    "GeonamesURL": "",
    "Description": "Samuel Beckett so designates the islands of Madeira, off the Atlantic coast of Portugal.",
    "AlternateSpellings": ""
  },
  {
    "ID": 674,
    "PlaceName": "Toulouse",
    "GeonamesURL": "https://www.geonames.org/2972315/toulouse.html",
    "Description": "Capital of Franceos southern Occitanie region.",
    "AlternateSpellings": ""
  },
  {
    "ID": 675,
    "PlaceName": "85 Rue de Tolbiac, Paris 13",
    "GeonamesURL": "",
    "Description": "Address of Raymond Cousse in 1969.",
    "AlternateSpellings": ""
  },
  {
    "ID": 676,
    "PlaceName": "Worcester",
    "GeonamesURL": "https://www.geonames.org/4956184/worcester.html",
    "Description": "City in central Massachusetts, United States.",
    "AlternateSpellings": ""
  },
  {
    "ID": 677,
    "PlaceName": "Morocco",
    "GeonamesURL": "https://www.geonames.org/2542007/kingdom-of-morocco.html",
    "Description": "North African country bordering the Atlantic Ocean and the Mediterranean Sea.",
    "AlternateSpellings": ""
  },
  {
    "ID": 678,
    "PlaceName": "Fiume",
    "GeonamesURL": "https://www.geonames.org/3191648/rijeka.html",
    "Description": "Port city on the northern Adriatic Sea, Yugoslavia; now Rijeka, Croatia.",
    "AlternateSpellings": "Rijeka, Croatia"
  },
  {
    "ID": 679,
    "PlaceName": "Strasbourg",
    "GeonamesURL": "https://www.geonames.org/2973783/strasbourg.html",
    "Description": "Capital city of the Grand Est region, formerly Alsace, France.",
    "AlternateSpellings": ""
  },
  {
    "ID": 680,
    "PlaceName": "Cambodia",
    "GeonamesURL": "https://www.geonames.org/1831722/kingdom-of-cambodia.html",
    "Description": "Southeast Asian country, between Thailand and Vietnam, on the Gulf of Thailand.",
    "AlternateSpellings": ""
  },
  {
    "ID": 681,
    "PlaceName": "Bersholman, Sweden",
    "GeonamesURL": "",
    "Description": "Address of Mr. Green, in 1966.",
    "AlternateSpellings": ""
  },
  {
    "ID": 682,
    "PlaceName": "Chamonix",
    "GeonamesURL": "https://www.geonames.org/3027301/chamonix-mont-blanc.html",
    "Description": "Resort area near the junction of France, Switzerland, and Italy in the Alps.",
    "AlternateSpellings": "Chamoinix-Mont-Blanc"
  },
  {
    "ID": 683,
    "PlaceName": "Athens",
    "GeonamesURL": "https://www.geonames.org/264371/athens.html",
    "Description": "Capital city of Greece.",
    "AlternateSpellings": ""
  },
  {
    "ID": 684,
    "PlaceName": "Tel Aviv",
    "GeonamesURL": "https://www.geonames.org/293397/tel-aviv.html",
    "Description": "City on the Mediterranean coast of Israel.",
    "AlternateSpellings": ""
  },
  {
    "ID": 685,
    "PlaceName": "Tunisia",
    "GeonamesURL": "https://www.geonames.org/2464461/republic-of-tunisia.html",
    "Description": "North African country bordering on the Mediterranean Sea and the Sahara Desert.",
    "AlternateSpellings": ""
  },
  {
    "ID": 686,
    "PlaceName": "St. Louis",
    "GeonamesURL": "https://www.geonames.org/4407066/st-louis.html",
    "Description": "City in Missouri on the Mississippi River.",
    "AlternateSpellings": ""
  },
  {
    "ID": 687,
    "PlaceName": "Passy",
    "GeonamesURL": "",
    "Description": "Paris 16.",
    "AlternateSpellings": ""
  },
  {
    "ID": 688,
    "PlaceName": "Royan",
    "GeonamesURL": "https://www.geonames.org/2982343/royan.html",
    "Description": "Seaside resort town on the southwestern Atlantic coast of France.",
    "AlternateSpellings": ""
  },
  {
    "ID": 689,
    "PlaceName": "26 Rue de Condo, Paris 6",
    "GeonamesURL": "",
    "Description": "Address of Les Lettres Nouvelles in 1969.",
    "AlternateSpellings": ""
  },
  {
    "ID": 690,
    "PlaceName": "Santa Cruz",
    "GeonamesURL": "",
    "Description": "Country not confirmed.",
    "AlternateSpellings": ""
  },
  {
    "ID": 691,
    "PlaceName": "6 Piazza di Bellosquardo, Florence",
    "GeonamesURL": "",
    "Description": "Address of Lawrence Harvey in 1969, while on sabbatical.",
    "AlternateSpellings": ""
  },
  {
    "ID": 692,
    "PlaceName": "45 Rue d'Ulm, Paris 5",
    "GeonamesURL": "",
    "Description": "Address of the ocole normale suporieure.",
    "AlternateSpellings": ""
  },
  {
    "ID": 693,
    "PlaceName": "Norway",
    "GeonamesURL": "https://www.geonames.org/3144096/kingdom-of-norway.html",
    "Description": "Country whose territory comprises the western and northernmost portion of the Scandinavian Peninsula.",
    "AlternateSpellings": ""
  },
  {
    "ID": 694,
    "PlaceName": "Rue Denfert",
    "GeonamesURL": "",
    "Description": "Location of Walter Lowenfels's flat in 1930-1931; now named Rue Henri Barbusse, a small street between the Avenue Denfert-Rochereau and the Boulevard Port-Royal, Paris 14.",
    "AlternateSpellings": "Rue Henri-Barbusse"
  },
  {
    "ID": 695,
    "PlaceName": "Le Bourget",
    "GeonamesURL": "https://www.geonames.org/2988502/paris-le-bourget-airport.html",
    "Description": "Airport located in the commune of the same name in northeastern suburb of Paris.",
    "AlternateSpellings": ""
  },
  {
    "ID": 696,
    "PlaceName": "Beauvais",
    "GeonamesURL": "https://www.geonames.org/3034006/beauvais.html",
    "Description": "City and commune in northern France, capital of the OIse, Hauts-de-France.",
    "AlternateSpellings": ""
  },
  {
    "ID": 697,
    "PlaceName": "Hanseatenweg 10",
    "GeonamesURL": "",
    "Description": "Address of Akademie der Konste, Berlin 21.",
    "AlternateSpellings": ""
  },
  {
    "ID": 698,
    "PlaceName": "New Mexico",
    "GeonamesURL": "https://www.geonames.org/5481136/new-mexico.html",
    "Description": "Southwestern state of the US, which shares a border with Mexico.",
    "AlternateSpellings": ""
  },
  {
    "ID": 699,
    "PlaceName": "Dahlem",
    "GeonamesURL": "https://www.geonames.org/2939440/dahlem.html",
    "Description": "A residential district of southwestern Berlin, location of the Freie Universitot Berlin.",
    "AlternateSpellings": ""
  },
  {
    "ID": 700,
    "PlaceName": "Dallas",
    "GeonamesURL": "https://www.geonames.org/4684888/dallas.html",
    "Description": "Major city in north Texas, United States.",
    "AlternateSpellings": ""
  },
  {
    "ID": 701,
    "PlaceName": "Luxembourg",
    "GeonamesURL": "https://www.geonames.org/2960313/grand-duchy-of-luxembourg.html",
    "Description": "European country surrounded by Belgium, France, and Germany; its capital is Luxembourg City.",
    "AlternateSpellings": ""
  },
  {
    "ID": 702,
    "PlaceName": "2 bis Rue Vivienne, Paris",
    "GeonamesURL": "",
    "Description": "Address of Marcel Mihalovici in 1966.",
    "AlternateSpellings": ""
  },
  {
    "ID": 703,
    "PlaceName": "Kilmainham",
    "GeonamesURL": "https://www.geonames.org/2963280/kilmainham.html",
    "Description": "Neighborhood, Dublin 8",
    "AlternateSpellings": ""
  },
  {
    "ID": 704,
    "PlaceName": "Palermo",
    "GeonamesURL": "https://www.geonames.org/2523920/palermo.html",
    "Description": "Capital of the Italian island of Sicily.",
    "AlternateSpellings": ""
  },
  {
    "ID": 705,
    "PlaceName": "Lascaux",
    "GeonamesURL": "https://www.geonames.org/3006471/grotte-de-lascaux.html",
    "Description": "A network of caves with prehistoric art, near the village of Montignac, Dordogne, southwestern France.",
    "AlternateSpellings": ""
  },
  {
    "ID": 706,
    "PlaceName": "Apollo Coast",
    "GeonamesURL": "https://www.geonames.org/11398118/athens-riviera.html",
    "Description": "Generic reference to the coast of Greece.",
    "AlternateSpellings": ""
  },
  {
    "ID": 707,
    "PlaceName": "Oslo",
    "GeonamesURL": "https://www.geonames.org/3143244/oslo.html",
    "Description": "Capital of Norway.",
    "AlternateSpellings": ""
  },
  {
    "ID": 708,
    "PlaceName": "South America",
    "GeonamesURL": "",
    "Description": "",
    "AlternateSpellings": ""
  },
  {
    "ID": 709,
    "PlaceName": "290 A Avenue Napoloon Bonaparte, Rueil-Malmaison, Seine et Oise",
    "GeonamesURL": "",
    "Description": "Address of Elmar Tophoven in 1966.",
    "AlternateSpellings": "Avenue Napoleon Bonaparte"
  },
  {
    "ID": 711,
    "PlaceName": "Lou Kianou 19, Athenes 139",
    "GeonamesURL": "",
    "Description": "Address of Christine Tsingos in 1966.",
    "AlternateSpellings": ""
  },
  {
    "ID": 712,
    "PlaceName": "Vougliameni",
    "GeonamesURL": "",
    "Description": "Seaside suburb and former municipality 20 kilometres south of Athens.",
    "AlternateSpellings": ""
  },
  {
    "ID": 713,
    "PlaceName": "Turkish Quarter",
    "GeonamesURL": "",
    "Description": "In the old city of Rhodes, the former village of Chora.",
    "AlternateSpellings": ""
  },
  {
    "ID": 714,
    "PlaceName": "Lindos",
    "GeonamesURL": "https://www.geonames.org/408687/lindos.html",
    "Description": "An archaeological site, a fishing village and a former municipality on the island of Rhodes.",
    "AlternateSpellings": ""
  },
  {
    "ID": 715,
    "PlaceName": "Charlottenburg Palace",
    "GeonamesURL": "https://www.geonames.org/7535597/charlottenburg-palace.html",
    "Description": "The largest palace in Berlin, in Charlottenburg-Wilmersdorf.",
    "AlternateSpellings": ""
  },
  {
    "ID": 716,
    "PlaceName": "Spree",
    "GeonamesURL": "https://www.geonames.org/3065504/spree.html",
    "Description": "A river that flows through Berlin.",
    "AlternateSpellings": ""
  },
  {
    "ID": 717,
    "PlaceName": "Taormina",
    "GeonamesURL": "https://www.geonames.org/2522975/taormina.html",
    "Description": "A hilltop town on the east coast of Sicily.",
    "AlternateSpellings": ""
  },
  {
    "ID": 718,
    "PlaceName": "Bordeaux",
    "GeonamesURL": "https://www.geonames.org/3031582/bordeaux.html",
    "Description": "Hub of the famed wine-growing region, a port city on the Garonne River, Southwestern France.",
    "AlternateSpellings": ""
  },
  {
    "ID": 719,
    "PlaceName": "Hammamet",
    "GeonamesURL": "https://www.geonames.org/2473744/hammamet.html",
    "Description": "A town in Tunisia on the southeastern section of Cap Bon.",
    "AlternateSpellings": ""
  },
  {
    "ID": 720,
    "PlaceName": "Grafton Street",
    "GeonamesURL": "https://www.geonames.org/6949197/grafton-street.html",
    "Description": "A principal shopping street in the center city of Dublin.",
    "AlternateSpellings": ""
  },
  {
    "ID": 721,
    "PlaceName": "Pigalle",
    "GeonamesURL": "",
    "Description": "Red-light district, Paris, 9 and 11.",
    "AlternateSpellings": ""
  },
  {
    "ID": 722,
    "PlaceName": "Cap Bon",
    "GeonamesURL": "https://www.geonames.org/2464554/cap-bon.html",
    "Description": "A peninsula in far northeastern Tunisia.",
    "AlternateSpellings": ""
  },
  {
    "ID": 723,
    "PlaceName": "Nabeul",
    "GeonamesURL": "https://www.geonames.org/2468579/nabeul.html",
    "Description": "Coastal town in north-eastern Tunisia, on the south coast of the Cape Bon peninsula",
    "AlternateSpellings": ""
  },
  {
    "ID": 724,
    "PlaceName": "Chicago",
    "GeonamesURL": "https://www.geonames.org/4887398/chicago.html",
    "Description": "Largest city in Illinois, on Lake Michigan.",
    "AlternateSpellings": ""
  },
  {
    "ID": 725,
    "PlaceName": "Rue de la Santo",
    "GeonamesURL": "",
    "Description": "Paris 13 and 14; near SB's apartment which overlookedo Santo prison.",
    "AlternateSpellings": ""
  },
  {
    "ID": 726,
    "PlaceName": "Square Port Royal",
    "GeonamesURL": "",
    "Description": "A lane off of the Rue de la Santo, Paris 13.",
    "AlternateSpellings": ""
  },
  {
    "ID": 727,
    "PlaceName": "Wisconsin",
    "GeonamesURL": "https://www.geonames.org/5279468/wisconsin.html",
    "Description": "Upper mid-west state, United States, bordered on the east by Lake Michigan.",
    "AlternateSpellings": ""
  },
  {
    "ID": 728,
    "PlaceName": "Milwaukee",
    "GeonamesURL": "https://www.geonames.org/5263045/milwaukee.html",
    "Description": "Largest city in Wisconsin, on Lake Michigan's western shore.",
    "AlternateSpellings": ""
  },
  {
    "ID": 729,
    "PlaceName": "189 Rue de la Convention, Paris 15",
    "GeonamesURL": "",
    "Description": "Address of a branch of the Socioto Gonorale.",
    "AlternateSpellings": ""
  },
  {
    "ID": 730,
    "PlaceName": "Haslemere",
    "GeonamesURL": "https://www.geonames.org/2647365/haslemere.html",
    "Description": "Town in the borough of Waverley in Surrey, England.",
    "AlternateSpellings": ""
  },
  {
    "ID": 731,
    "PlaceName": "Compton",
    "GeonamesURL": "https://www.geonames.org/2652488/compton.html",
    "Description": "Village and civil parish in Guildford, Surrey, England.",
    "AlternateSpellings": ""
  },
  {
    "ID": 732,
    "PlaceName": "Pearse Street",
    "GeonamesURL": "",
    "Description": "Street that extends between College Street and the Grand Canal Quay, Dublin 2.",
    "AlternateSpellings": ""
  },
  {
    "ID": 733,
    "PlaceName": "Rue des Marionettes",
    "GeonamesURL": "",
    "Description": "Street in Ussy-sur-Marne.",
    "AlternateSpellings": ""
  },
  {
    "ID": 734,
    "PlaceName": "Sea of Tranquility",
    "GeonamesURL": "",
    "Description": "An area of the moon within the Tranquillitatis basin.",
    "AlternateSpellings": ""
  },
  {
    "ID": 735,
    "PlaceName": "Ocean of Storms",
    "GeonamesURL": "",
    "Description": "An area on the western edge of the near side of the Moon.",
    "AlternateSpellings": ""
  },
  {
    "ID": 736,
    "PlaceName": "Rhine",
    "GeonamesURL": "",
    "Description": "River flowing from Switzerland through Germany to the North Sea.",
    "AlternateSpellings": ""
  },
  {
    "ID": 737,
    "PlaceName": "Basel",
    "GeonamesURL": "https://www.geonames.org/2661604/basel.html",
    "Description": "City on the Rhine River, northwestern Switzerland, bordering on France and Germany.",
    "AlternateSpellings": ""
  },
  {
    "ID": 738,
    "PlaceName": "Los Angeles",
    "GeonamesURL": "https://www.geonames.org/5368361/los-angeles.html",
    "Description": "Major city in southern California, on the Pacific coast.",
    "AlternateSpellings": ""
  },
  {
    "ID": 739,
    "PlaceName": "Agadir",
    "GeonamesURL": "https://www.geonames.org/2561668/agadir.html",
    "Description": "City in mid-southern Morocco, located on the shore of the Atlantic.",
    "AlternateSpellings": ""
  },
  {
    "ID": 740,
    "PlaceName": "Anti-Atlas Mountains",
    "GeonamesURL": "https://www.geonames.org/2557676/anti-atlas.html",
    "Description": "Part of Atlas Mountains in the northwest of Morocco.",
    "AlternateSpellings": "Lesser Atlas\"; \"Little Atlas"
  },
  {
    "ID": 741,
    "PlaceName": "Loughborough",
    "GeonamesURL": "",
    "Description": "Co. Clare, Ireland.",
    "AlternateSpellings": ""
  },
  {
    "ID": 743,
    "PlaceName": "Malahide",
    "GeonamesURL": "https://www.geonames.org/2962725/malahide.html",
    "Description": "Town Northeast of Dublin, site of Malahide Castle.",
    "AlternateSpellings": ""
  },
  {
    "ID": 744,
    "PlaceName": "Martello Tower",
    "GeonamesURL": "",
    "Description": "Defensive forts found along the coasts of Ireland, built across the British Empire in the 19th century. The one at Sandycove, County Dublin, features in James Joyce's Ulysses, and is now the \"James Joyce Tower and Museum.",
    "AlternateSpellings": ""
  },
  {
    "ID": 745,
    "PlaceName": "19 Av. de Tourville, Paris 7",
    "GeonamesURL": "",
    "Description": "Address of Avigdor Arikha in 1966.",
    "AlternateSpellings": ""
  },
  {
    "ID": 746,
    "PlaceName": "Algarve Coast",
    "GeonamesURL": "https://www.geonames.org/10227214/costa-del-algarve.html",
    "Description": "Coast of the Faro district of Portugal.",
    "AlternateSpellings": ""
  },
  {
    "ID": 747,
    "PlaceName": "Adelaide",
    "GeonamesURL": "https://www.geonames.org/2078025/adelaide.html",
    "Description": "Capital of South Australia, on the western coast.",
    "AlternateSpellings": ""
  },
  {
    "ID": 748,
    "PlaceName": "Sydney",
    "GeonamesURL": "https://www.geonames.org/2147714/sydney.html",
    "Description": "Capital of New South Wales, and one of Australia's largest cities.",
    "AlternateSpellings": ""
  },
  {
    "ID": 749,
    "PlaceName": "Melbourne",
    "GeonamesURL": "https://www.geonames.org/2158177/melbourne.html",
    "Description": "Capital of Victoria, on the coast of southeastern Australia.",
    "AlternateSpellings": ""
  },
  {
    "ID": 750,
    "PlaceName": "Taroudant",
    "GeonamesURL": "https://www.geonames.org/2529649/taroudant.html",
    "Description": "City in the Sous valley in southern Morocco.",
    "AlternateSpellings": ""
  },
  {
    "ID": 751,
    "PlaceName": "El Jadida",
    "GeonamesURL": "https://www.geonames.org/2550078/el-jadid.html",
    "Description": "Port city on the Atlantic coast of Morocco.",
    "AlternateSpellings": ""
  },
  {
    "ID": 752,
    "PlaceName": "Atlas Mountains",
    "GeonamesURL": "https://www.geonames.org/2556769/atlas-mountains.html",
    "Description": "Mountain range in the north of Morocco.",
    "AlternateSpellings": ""
  },
  {
    "ID": 753,
    "PlaceName": "Pall Mall",
    "GeonamesURL": "",
    "Description": "Street in the St. James's area of Westminster, Central London. It extends from St. James's Palace to Trafalgar Square.",
    "AlternateSpellings": ""
  },
  {
    "ID": 754,
    "PlaceName": "Cito Chaptal",
    "GeonamesURL": "",
    "Description": "Paris 9.",
    "AlternateSpellings": "Cite Chaptal"
  },
  {
    "ID": 755,
    "PlaceName": "Sunnyside, Balsham Road, Brinkley, Cambridgeshire",
    "GeonamesURL": "",
    "Description": "Address of Fred Willets in 1967.",
    "AlternateSpellings": ""
  },
  {
    "ID": 756,
    "PlaceName": "Hansaplatz",
    "GeonamesURL": "",
    "Description": "Square in the Hansaviertel district of Berlin, and U-Bahn station, which opened in 1961.",
    "AlternateSpellings": ""
  },
  {
    "ID": 757,
    "PlaceName": "Redford",
    "GeonamesURL": "",
    "Description": "Cemetery in Greystones, Co. Wicklow.",
    "AlternateSpellings": ""
  },
  {
    "ID": 758,
    "PlaceName": "Lansdowne Rd",
    "GeonamesURL": "",
    "Description": "Ballsbridge, Dublin 4. Formerly the name given to the Rugby Station on that road.",
    "AlternateSpellings": ""
  },
  {
    "ID": 759,
    "PlaceName": "Marseille",
    "GeonamesURL": "https://www.geonames.org/2995469/marseille.html",
    "Description": "A port city in southern France.",
    "AlternateSpellings": ""
  },
  {
    "ID": 760,
    "PlaceName": "Trieste",
    "GeonamesURL": "https://www.geonames.org/3165185/trieste.html",
    "Description": "Capital city of the Friuli Venezia Giulia region in northeast Italy, and the Adriatic Sea.",
    "AlternateSpellings": ""
  },
  {
    "ID": 761,
    "PlaceName": "Enniskerry",
    "GeonamesURL": "https://www.geonames.org/2964401/enniskerry.html",
    "Description": "Village in Co. Wicklow.",
    "AlternateSpellings": ""
  },
  {
    "ID": 762,
    "PlaceName": "3 E 54 St. N.Y. 22",
    "GeonamesURL": "",
    "Description": "Address of Martin E. Segal in 1968.",
    "AlternateSpellings": ""
  },
  {
    "ID": 763,
    "PlaceName": "61 Quai de la Tournelle, Paris 5",
    "GeonamesURL": "",
    "Description": "Address of Georges Duthuit.",
    "AlternateSpellings": ""
  },
  {
    "ID": 764,
    "PlaceName": "Howth",
    "GeonamesURL": "https://www.geonames.org/2963722/howth.html",
    "Description": "A village on the Howth Peninsula east of central Dublin, Dublin 3.",
    "AlternateSpellings": ""
  },
  {
    "ID": 765,
    "PlaceName": "La Bastide, Chemin du Riou, 6 Vence",
    "GeonamesURL": "",
    "Description": "Address of Agnos Janvier in 1968.",
    "AlternateSpellings": ""
  },
  {
    "ID": 766,
    "PlaceName": "40 Place Jules Ferry, Montrouge, Seine",
    "GeonamesURL": "",
    "Description": "Address of Jacoba van Velde in 1968.",
    "AlternateSpellings": ""
  },
  {
    "ID": 767,
    "PlaceName": "Vila Marina, Funchal",
    "GeonamesURL": "",
    "Description": "Address of the Becketts while in Funchal, Madeira in 1968.",
    "AlternateSpellings": ""
  },
  {
    "ID": 768,
    "PlaceName": "Rue Chaptal",
    "GeonamesURL": "",
    "Description": "Paris 9, street.",
    "AlternateSpellings": ""
  },
  {
    "ID": 769,
    "PlaceName": "Faro",
    "GeonamesURL": "https://www.geonames.org/2268339/faro.html",
    "Description": "Southernmost city in the District of the same name, Algarve, Portugal.",
    "AlternateSpellings": ""
  },
  {
    "ID": 770,
    "PlaceName": "Hotel Porto Santo, Porto Santo, Madeira, Portugal",
    "GeonamesURL": "https://www.geonames.org/10172653/porto-santo-hotel-%26-spa-porto-santomadeira.html",
    "Description": "SB stayed there in 1968.",
    "AlternateSpellings": ""
  },
  {
    "ID": 771,
    "PlaceName": "4 Rue Pouchet, Paris 17",
    "GeonamesURL": "",
    "Description": "Address of Madame Denis Deleutre in 1970.",
    "AlternateSpellings": ""
  },
  {
    "ID": 772,
    "PlaceName": "Bourges",
    "GeonamesURL": "https://www.geonames.org/3031005/bourges.html",
    "Description": "Capital of Cher, central France, along the Yevre River",
    "AlternateSpellings": ""
  },
  {
    "ID": 773,
    "PlaceName": "Elysoe-Montmartre",
    "GeonamesURL": "",
    "Description": "Music venue in Montmartre, Paris.",
    "AlternateSpellings": "Elysee-Montmartre"
  },
  {
    "ID": 774,
    "PlaceName": "Menzelstrasse 22, 7 Stuttgart Nord",
    "GeonamesURL": "",
    "Description": "Address of Jim Lewis in 1970.",
    "AlternateSpellings": ""
  },
  {
    "ID": 775,
    "PlaceName": "Glencullen",
    "GeonamesURL": "https://www.geonames.org/3315212/glencullen.html",
    "Description": "Village in South County Dublin.",
    "AlternateSpellings": ""
  },
  {
    "ID": 776,
    "PlaceName": "Sandymount",
    "GeonamesURL": "https://www.geonames.org/2961589/sandymount.html",
    "Description": "Coastal suburb of Dublin, on Dublin Bay.",
    "AlternateSpellings": ""
  },
  {
    "ID": 777,
    "PlaceName": "Foxrock",
    "GeonamesURL": "https://www.geonames.org/3315280/foxrock.html",
    "Description": "Suburb of southeast of Dublin; location of the Beckett family home.",
    "AlternateSpellings": ""
  },
  {
    "ID": 778,
    "PlaceName": "Sally Gap",
    "GeonamesURL": "https://www.geonames.org/2961604/sally-gap.html",
    "Description": "Mountain pass in Wicklow Mountains of Ireland.",
    "AlternateSpellings": ""
  },
  {
    "ID": 780,
    "PlaceName": "Scara A, App. 4, Timisoara\nRourmanie",
    "GeonamesURL": "",
    "Description": "Address of Mlle. Marguerite Bartha, in 1970.",
    "AlternateSpellings": "Timi_oara\"; \"Romania"
  },
  {
    "ID": 781,
    "PlaceName": "Dieppe",
    "GeonamesURL": "https://www.geonames.org/3021411/dieppe.html",
    "Description": "Fishing port on the Normandy coast, northern France.",
    "AlternateSpellings": ""
  },
  {
    "ID": 782,
    "PlaceName": "10 Rue Treilhard, Paris 8",
    "GeonamesURL": "",
    "Description": "Address of the Editions de la Fondation Maeght, 1970.",
    "AlternateSpellings": ""
  },
  {
    "ID": 784,
    "PlaceName": "5 Patchin Place, N.Y. N.Y. 10011",
    "GeonamesURL": "",
    "Description": "Greenwich village address of Djuna Barnes in 1970.",
    "AlternateSpellings": ""
  },
  {
    "ID": 786,
    "PlaceName": "Place des Vosges",
    "GeonamesURL": "https://www.geonames.org/6295668/place-des-vosges.html",
    "Description": "Oldest planned square in Paris, Marais, Paris 3 and 4.",
    "AlternateSpellings": ""
  },
  {
    "ID": 787,
    "PlaceName": "Monte Carlo",
    "GeonamesURL": "https://www.geonames.org/2992741/monte-carlo.html",
    "Description": "The administrative area of the Principality of Monaco.",
    "AlternateSpellings": ""
  },
  {
    "ID": 788,
    "PlaceName": "Towcester",
    "GeonamesURL": "https://www.geonames.org/2635597/towcester.html",
    "Description": "Market town in Northamptonshire, England. One of the oldest continuously inhabited settlements in the country.",
    "AlternateSpellings": ""
  },
  {
    "ID": 789,
    "PlaceName": "Lebanon",
    "GeonamesURL": "",
    "Description": "Middle-Eastern country that borders the Mediterranean Sea.",
    "AlternateSpellings": ""
  },
  {
    "ID": 790,
    "PlaceName": "Cabourg",
    "GeonamesURL": "",
    "Description": "Commune in Normandy, France.",
    "AlternateSpellings": ""
  },
  {
    "ID": 791,
    "PlaceName": "Istanbul",
    "GeonamesURL": "",
    "Description": "Major city in Turkey that straddles Europe and Asia across the Bosporus Strait.",
    "AlternateSpellings": ""
  },
  {
    "ID": 792,
    "PlaceName": "Honolulu",
    "GeonamesURL": "",
    "Description": "Capital of Hawaii.",
    "AlternateSpellings": ""
  }
]
